{
"type": "FeatureCollection",
"name": "zona_potensial_10m_check4factor",
"crs": { "type": "name", "properties": { "name": "urn:ogc:def:crs:OGC:1.3:CRS84" } },
"features": [
{ "type": "Feature", "properties": { "zone_id": 1, "scenario": "check4factor", "pixel_count": 70, "area_m2": 28000, "area_ha": 2.8, "input_file": "factor_suitability_2025_Depth_10m_2025_highest.tif", "salinity_min": 33.099, "salinity_max": 33.099, "salinity_mean": 33.099, "salinity_median": 33.099, "depth_min": 3.823, "depth_max": 4.998, "depth_mean": 4.688, "depth_median": 4.718, "temperature_min": 28.951, "temperature_max": 28.951, "temperature_mean": 28.951, "temperature_median": 28.951, "sedimentation_min": 24.774, "sedimentation_max": 24.774, "sedimentation_mean": 24.774, "sedimentation_median": 24.774, "depth_group": "10m", "source_zone_tif": "25_10m_2025_highest_check4factor_zone.tif", "source_csv": "25_10m_2025_highest_check4factor_ringkasan.csv" }, "geometry": { "type": "MultiPolygon", "coordinates": [ [ [ [ 137.740177422890525, -5.450867633019914 ], [ 137.739815943825477, -5.451046313376927 ], [ 137.739637642804155, -5.450684065711815 ], [ 137.740178398126773, -5.450686997835811 ], [ 137.740177422890525, -5.450867633019914 ] ] ], [ [ [ 137.739821795592007, -5.449962502651942 ], [ 137.739820820379606, -5.450143137775912 ], [ 137.739460317251741, -5.450141183060647 ], [ 137.739458366513759, -5.450502453174496 ], [ 137.739638618168669, -5.450503430624194 ], [ 137.739637642804155, -5.450684065711815 ], [ 137.738916636166664, -5.450680155459853 ], [ 137.738918587292403, -5.450318885544031 ], [ 137.739098838795172, -5.450319863122558 ], [ 137.739281041110502, -5.449959570596089 ], [ 137.739821795592007, -5.449962502651942 ] ] ], [ [ [ 137.739100789682283, -5.449958593136538 ], [ 137.739099814255127, -5.450139228130174 ], [ 137.738919562806046, -5.450138250584234 ], [ 137.738920538286891, -5.449957615623185 ], [ 137.739100789682283, -5.449958593136538 ] ] ], [ [ [ 137.738921513734908, -5.44977698066088 ], [ 137.738920538286891, -5.449957615623185 ], [ 137.738740286924326, -5.449956638056033 ], [ 137.738741262426004, -5.449776003126317 ], [ 137.738921513734908, -5.44977698066088 ] ] ], [ [ [ 137.739643494499092, -5.449600255167248 ], [ 137.739642519298656, -5.449780890261148 ], [ 137.739282016451142, -5.449778935568611 ], [ 137.739281041110502, -5.449959570596089 ], [ 137.739100789682283, -5.449958593136538 ], [ 137.739101765076612, -5.449777958141645 ], [ 137.738921513734908, -5.44977698066088 ], [ 137.738922489150099, -5.449596345697318 ], [ 137.738742237894883, -5.449595368195345 ], [ 137.738741262426004, -5.449776003126317 ], [ 137.738561011149926, -5.449775025537956 ], [ 137.738560035594531, -5.449955660435081 ], [ 137.738919562806046, -5.450138250584234 ], [ 137.738737360222302, -5.450498542837649 ], [ 137.738557108731499, -5.450497565118924 ], [ 137.738558084385318, -5.450316930225565 ], [ 137.738197581609512, -5.450314974691885 ], [ 137.738196605848287, -5.450495609520057 ], [ 137.738016354455937, -5.450494631639916 ], [ 137.738018306052936, -5.450133362047509 ], [ 137.737838054800761, -5.450132384178759 ], [ 137.737839030603681, -5.449951749413271 ], [ 137.738200508696224, -5.449773070199839 ], [ 137.73838466201471, -5.449051508425112 ], [ 137.739466168678234, -5.449057372688975 ], [ 137.739463243112652, -5.449599277880462 ], [ 137.739643494499092, -5.449600255167248 ] ] ], [ [ [ 137.740003022277364, -5.449782844738491 ], [ 137.740002047151449, -5.449963479896294 ], [ 137.739821795592007, -5.449962502651942 ], [ 137.739823745918386, -5.449601232400238 ], [ 137.740003997370479, -5.449602209579433 ], [ 137.740006922452977, -5.449060304094725 ], [ 137.740367425133485, -5.449062258096267 ], [ 137.740363525387323, -5.44978479900064 ], [ 137.740003022277364, -5.449782844738491 ] ] ] ] } },
{ "type": "Feature", "properties": { "zone_id": 2, "scenario": "check4factor", "pixel_count": 51, "area_m2": 20400, "area_ha": 2.04, "input_file": "factor_suitability_2025_Depth_10m_2025_highest.tif", "salinity_min": 33.099, "salinity_max": 33.099, "salinity_mean": 33.099, "salinity_median": 33.099, "depth_min": 3.619, "depth_max": 4.997, "depth_mean": 4.728, "depth_median": 4.763, "temperature_min": 28.951, "temperature_max": 28.951, "temperature_mean": 28.951, "temperature_median": 28.951, "sedimentation_min": 24.774, "sedimentation_max": 24.774, "sedimentation_mean": 24.774, "sedimentation_median": 24.774, "depth_group": "10m", "source_zone_tif": "25_10m_2025_highest_check4factor_zone.tif", "source_csv": "25_10m_2025_highest_check4factor_ringkasan.csv" }, "geometry": { "type": "MultiPolygon", "coordinates": [ [ [ [ 137.742698028733685, -5.451423217230407 ], [ 137.742878281247357, -5.451424193874344 ], [ 137.742876332090646, -5.451785465208124 ], [ 137.742335574325779, -5.451782534919556 ], [ 137.742336549081642, -5.451601899350949 ], [ 137.742516801583434, -5.451602876135071 ], [ 137.742518750889388, -5.451241604928985 ], [ 137.742699003316574, -5.451242581594184 ], [ 137.742698028733685, -5.451423217230407 ] ] ], [ [ [ 137.742160195522956, -5.450878380356251 ], [ 137.741799691112817, -5.450876426779385 ], [ 137.741797741508464, -5.451237697730046 ], [ 137.741617489245186, -5.451236720795777 ], [ 137.741620413763656, -5.450694814465587 ], [ 137.742161170168572, -5.450697744813922 ], [ 137.742160195522956, -5.450878380356251 ] ] ], [ [ [ 137.742519725493167, -5.451060969324058 ], [ 137.742518750889388, -5.451241604928985 ], [ 137.742338498494973, -5.451240628209969 ], [ 137.742160195522956, -5.450878380356251 ], [ 137.742340447777195, -5.450879357063968 ], [ 137.742341422369122, -5.450698721489085 ], [ 137.742702901320285, -5.450520039036738 ], [ 137.742699977866664, -5.451061945956706 ], [ 137.742519725493167, -5.451060969324058 ] ] ], [ [ [ 137.743251451299898, -5.449077882362591 ], [ 137.743249503210109, -5.449439153859196 ], [ 137.743069251221499, -5.449438177680897 ], [ 137.743065354433895, -5.450160720528857 ], [ 137.743245606637259, -5.450161696837339 ], [ 137.743423910497711, -5.450523944638649 ], [ 137.742702901320285, -5.450520039036738 ], [ 137.742703875739267, -5.450339403394239 ], [ 137.742523623580581, -5.450338426891797 ], [ 137.742705824478918, -5.449978132105475 ], [ 137.742345320409015, -5.449976179176995 ], [ 137.742346294837034, -5.449795543595835 ], [ 137.74270777308746, -5.449616860811691 ], [ 137.742710695754425, -5.449074953861601 ], [ 137.743251451299898, -5.449077882362591 ] ] ], [ [ [ 137.741987739978043, -5.449432319481403 ], [ 137.741809437167518, -5.449070071950772 ], [ 137.742530443971447, -5.44907397758702 ], [ 137.742527521143472, -5.449615884439454 ], [ 137.742347269232283, -5.44961490801342 ], [ 137.742348243594705, -5.449434272429751 ], [ 137.741987739978043, -5.449432319481403 ] ] ] ] } },
{ "type": "Feature", "properties": { "zone_id": 3, "scenario": "check4factor", "pixel_count": 52, "area_m2": 20800, "area_ha": 2.08, "input_file": "factor_suitability_2025_Depth_10m_2025_highest.tif", "salinity_min": 33.099, "salinity_max": 33.099, "salinity_mean": 33.099, "salinity_median": 33.099, "depth_min": 3.804, "depth_max": 4.989, "depth_mean": 4.618, "depth_median": 4.732, "temperature_min": 28.951, "temperature_max": 28.951, "temperature_mean": 28.951, "temperature_median": 28.951, "sedimentation_min": 24.774, "sedimentation_max": 24.774, "sedimentation_mean": 24.774, "sedimentation_median": 24.774, "depth_group": "10m", "source_zone_tif": "25_10m_2025_highest_check4factor_zone.tif", "source_csv": "25_10m_2025_highest_check4factor_ringkasan.csv" }, "geometry": { "type": "MultiPolygon", "coordinates": [ [ [ [ 137.741601886829216, -5.454126887699271 ], [ 137.741602862226102, -5.453946252277222 ], [ 137.741963368396796, -5.453948207068743 ], [ 137.741962393107315, -5.45412884255591 ], [ 137.741601886829216, -5.454126887699271 ] ] ], [ [ [ 137.741603837590247, -5.453765616853916 ], [ 137.741602862226102, -5.453946252277222 ], [ 137.741422609189982, -5.4539452748007 ], [ 137.741423584607844, -5.453764639409959 ], [ 137.741603837590247, -5.453765616853916 ] ] ], [ [ [ 137.741603837590247, -5.453765616853916 ], [ 137.741604812921594, -5.453584981429357 ], [ 137.741785065883107, -5.453585958786914 ], [ 137.741784090605478, -5.453766594244036 ], [ 137.741603837590247, -5.453765616853916 ] ] ], [ [ [ 137.740884776916999, -5.453400436165198 ], [ 137.740883801403555, -5.453581071460755 ], [ 137.741064054233902, -5.45358204903366 ], [ 137.741065029693601, -5.453401413705536 ], [ 137.741424559992907, -5.45358400401796 ], [ 137.741423584607844, -5.453764639409959 ], [ 137.741243331658211, -5.453763661912162 ], [ 137.74142163373935, -5.454125910190186 ], [ 137.741061127657986, -5.454123955010495 ], [ 137.741239429575131, -5.454486203337336 ], [ 137.740878923344439, -5.454484247919691 ], [ 137.740522320187637, -5.453759751382592 ], [ 137.740342067401997, -5.453758773615605 ], [ 137.740341091661804, -5.453939408810933 ], [ 137.740160838855246, -5.453938430957531 ], [ 137.740161814649156, -5.453757795794778 ], [ 137.739440803965891, -5.453753883973092 ], [ 137.739441779941899, -5.453573248939401 ], [ 137.739622032509772, -5.453574226942997 ], [ 137.739623008399263, -5.453393591875468 ], [ 137.739442755885079, -5.453392613904454 ], [ 137.739444707673044, -5.453031343830793 ], [ 137.739624960079766, -5.453032321736642 ], [ 137.7396239842559, -5.453212956806683 ], [ 137.739983513526028, -5.453395547655992 ], [ 137.73998448927523, -5.453214912522048 ], [ 137.740344994425783, -5.453216868022082 ], [ 137.740345970034781, -5.453036232821729 ], [ 137.740526222605553, -5.453037210458423 ], [ 137.74052817361769, -5.452675939988802 ], [ 137.740708426113827, -5.452676917506523 ], [ 137.740704524173196, -5.453399458571027 ], [ 137.740884776916999, -5.453400436165198 ] ] ], [ [ [ 137.741424559992907, -5.45358400401796 ], [ 137.741425535345172, -5.453403368624705 ], [ 137.74160578822017, -5.453404346003537 ], [ 137.741604812921594, -5.453584981429357 ], [ 137.741424559992907, -5.45358400401796 ] ] ], [ [ [ 137.740347921154324, -5.452674962417255 ], [ 137.740348896664898, -5.452494327213135 ], [ 137.740529149074547, -5.452495304752109 ], [ 137.74052817361769, -5.452675939988802 ], [ 137.740347921154324, -5.452674962417255 ] ] ], [ [ [ 137.740708426113827, -5.452676917506523 ], [ 137.740709401516966, -5.452496282237258 ], [ 137.740889653992213, -5.452497259668581 ], [ 137.740888678642762, -5.452677894970416 ], [ 137.740708426113827, -5.452676917506523 ] ] ], [ [ [ 137.740710376887336, -5.452315646966737 ], [ 137.740709401516966, -5.452496282237258 ], [ 137.740529149074547, -5.452495304752109 ], [ 137.740530124498605, -5.452314669514158 ], [ 137.740710376887336, -5.452315646966737 ] ] ], [ [ [ 137.740710376887336, -5.452315646966737 ], [ 137.740711352224906, -5.45213501169496 ], [ 137.74089160459269, -5.452135989061142 ], [ 137.740890629308865, -5.45231662436549 ], [ 137.740710376887336, -5.452315646966737 ] ] ] ] } },
{ "type": "Feature", "properties": { "zone_id": 4, "scenario": "check4factor", "pixel_count": 54, "area_m2": 21600, "area_ha": 2.16, "input_file": "factor_suitability_2025_Depth_10m_2025_highest.tif", "salinity_min": 33.099, "salinity_max": 33.099, "salinity_mean": 33.099, "salinity_median": 33.099, "depth_min": 4.295, "depth_max": 4.994, "depth_mean": 4.743, "depth_median": 4.788, "temperature_min": 28.951, "temperature_max": 28.951, "temperature_mean": 28.951, "temperature_median": 28.951, "sedimentation_min": 24.774, "sedimentation_max": 24.774, "sedimentation_mean": 24.774, "sedimentation_median": 24.774, "depth_group": "10m", "source_zone_tif": "25_10m_2025_highest_check4factor_zone.tif", "source_csv": "25_10m_2025_highest_check4factor_ringkasan.csv" }, "geometry": { "type": "MultiPolygon", "coordinates": [ [ [ [ 137.744300813664495, -5.455044723406979 ], [ 137.744301788419335, -5.454864087502984 ], [ 137.744662296110562, -5.454866041004615 ], [ 137.744663270725169, -5.454685405034295 ], [ 137.744843524566193, -5.454686381671805 ], [ 137.74484157541167, -5.455047653676246 ], [ 137.744300813664495, -5.455044723406979 ] ] ], [ [ [ 137.744844499094313, -5.454505745667701 ], [ 137.744845473589692, -5.45432510966234 ], [ 137.745025727356023, -5.454326086180945 ], [ 137.745024752914361, -5.454506722218835 ], [ 137.744844499094313, -5.454505745667701 ] ] ], [ [ [ 137.7448464480523, -5.454144473655725 ], [ 137.744845473589692, -5.45432510966234 ], [ 137.744665219856159, -5.454324133089892 ], [ 137.744663270725169, -5.454685405034295 ], [ 137.744483016916945, -5.454684428342937 ], [ 137.744306661702154, -5.453960907964167 ], [ 137.744667168856068, -5.453962861140465 ], [ 137.744666194372485, -5.454143497115807 ], [ 137.7448464480523, -5.454144473655725 ] ] ], [ [ [ 137.744308610785936, -5.453599636139851 ], [ 137.744306661702154, -5.453960907964167 ], [ 137.744126408174338, -5.453959931295256 ], [ 137.744128357365554, -5.45359865953601 ], [ 137.744308610785936, -5.453599636139851 ] ] ], [ [ [ 137.744131280906657, -5.453056751887724 ], [ 137.744128357365554, -5.45359865953601 ], [ 137.743767850623129, -5.453596706166819 ], [ 137.743766875936444, -5.453777341981993 ], [ 137.743947129345003, -5.453778318726047 ], [ 137.744125433529575, -5.454140567172995 ], [ 137.743764926464792, -5.454138613608573 ], [ 137.743762976862087, -5.454499885230129 ], [ 137.743402469713459, -5.454497931320168 ], [ 137.743584672981569, -5.454137636745599 ], [ 137.742864634397193, -5.453953093105335 ], [ 137.742865609385262, -5.453772457454142 ], [ 137.743045862629941, -5.453773434467389 ], [ 137.742867559263033, -5.453411186147985 ], [ 137.743587597301058, -5.453595729401468 ], [ 137.74358857200869, -5.453415093617579 ], [ 137.743768825277044, -5.453416070350389 ], [ 137.743771749042168, -5.452874162893568 ], [ 137.744131280906657, -5.453056751887724 ] ] ], [ [ [ 137.744669117724953, -5.453601589186016 ], [ 137.744670092110255, -5.453420953206906 ], [ 137.744850345575173, -5.453421929616702 ], [ 137.744849371243589, -5.453602565628342 ], [ 137.744669117724953, -5.453601589186016 ] ] ], [ [ [ 137.744489838678106, -5.453419976743274 ], [ 137.744488864239059, -5.453600612689852 ], [ 137.744308610785936, -5.453599636139851 ], [ 137.744310559738665, -5.45323836431051 ], [ 137.744671066462814, -5.453240317226543 ], [ 137.744670092110255, -5.453420953206906 ], [ 137.744489838678106, -5.453419976743274 ] ] ], [ [ [ 137.742869509009751, -5.453049914836805 ], [ 137.742870483833912, -5.452869279179333 ], [ 137.743050736810005, -5.452870256029839 ], [ 137.743048787236319, -5.453231527408627 ], [ 137.742868534152791, -5.453230550493023 ], [ 137.742867559263033, -5.453411186147985 ], [ 137.742326800047977, -5.453408254980517 ], [ 137.742327775098858, -5.453227619423211 ], [ 137.742508028084046, -5.453228596500316 ], [ 137.742509977980035, -5.45286732531683 ], [ 137.742869509009751, -5.453049914836805 ] ] ] ] } }
]
}
