{
"type": "FeatureCollection",
"name": "zona_potensial_35m_noCheck4factor",
"crs": { "type": "name", "properties": { "name": "urn:ogc:def:crs:OGC:1.3:CRS84" } },
"features": [
{ "type": "Feature", "properties": { "zone_id": 1, "scenario": "noCheck4factor", "pixel_count": 996, "area_m2": 398400, "area_ha": 39.84, "input_file": "factor_suitability_2025_Depth_35m_2025_highest.tif", "salinity_min": 33.099, "salinity_max": 33.099, "salinity_mean": 33.099, "salinity_median": 33.099, "depth_min": 5.486, "depth_max": 13.281, "depth_mean": 8.078, "depth_median": 7.959, "temperature_min": 28.951, "temperature_max": 28.951, "temperature_mean": 28.951, "temperature_median": 28.951, "sedimentation_min": 13.535, "sedimentation_max": 13.535, "sedimentation_mean": 13.535, "sedimentation_median": 13.535, "depth_group": "35m", "source_zone_tif": "25_35m_2025_highest_noCheck4factor_zone.tif", "source_csv": "25_35m_2025_highest_noCheck4factor_ringkasan.csv" }, "geometry": { "type": "Polygon", "coordinates": [ [ [ 137.652367289935512, -5.423472035532538 ], [ 137.652358320694219, -5.425097608829792 ], [ 137.651637408332988, -5.425093612814276 ], [ 137.651624445167982, -5.427441661213001 ], [ 137.646397826532336, -5.427412651861951 ], [ 137.646396827580247, -5.427593269989762 ], [ 137.646036372061104, -5.427591267617582 ], [ 137.646035372968356, -5.427771885677116 ], [ 137.650000392274535, -5.427793900725042 ], [ 137.649965443946314, -5.434115557803186 ], [ 137.65014567435594, -5.43411655904273 ], [ 137.650146673399064, -5.43393594025703 ], [ 137.650687364669636, -5.433938943553515 ], [ 137.650689362333736, -5.433577705777522 ], [ 137.650869592717669, -5.433578706702178 ], [ 137.650870591445681, -5.433398087778827 ], [ 137.651951974135699, -5.433404092000024 ], [ 137.651953970848666, -5.433042853748039 ], [ 137.652674892887717, -5.433046855222238 ], [ 137.652676889037991, -5.432685616697619 ], [ 137.653037350045594, -5.432687616979261 ], [ 137.653045332443838, -5.43124266229527 ], [ 137.653405792730382, -5.431244661827433 ], [ 137.653407787779287, -5.430883423010074 ], [ 137.653948478140762, -5.430886421705736 ], [ 137.653965427892643, -5.4278158898495 ], [ 137.655587492615268, -5.427824877928548 ], [ 137.65560143719722, -5.425296200150444 ], [ 137.652537552171424, -5.425279226982238 ], [ 137.652547517629358, -5.423473034101556 ], [ 137.652367289935512, -5.423472035532538 ] ] ] } },
{ "type": "Feature", "properties": { "zone_id": 2, "scenario": "noCheck4factor", "pixel_count": 5574, "area_m2": 2229600, "area_ha": 222.96, "input_file": "factor_suitability_2025_Depth_35m_2025_highest.tif", "salinity_min": 33.099, "salinity_max": 33.099, "salinity_mean": 33.099, "salinity_median": 33.099, "depth_min": 5.532, "depth_max": 16.503, "depth_mean": 10.305, "depth_median": 10.214, "temperature_min": 28.951, "temperature_max": 28.951, "temperature_mean": 28.951, "temperature_median": 28.951, "sedimentation_min": 11.639, "sedimentation_max": 11.639, "sedimentation_mean": 11.639, "sedimentation_median": 11.639, "depth_group": "35m", "source_zone_tif": "25_35m_2025_highest_noCheck4factor_zone.tif", "source_csv": "25_35m_2025_highest_noCheck4factor_ringkasan.csv" }, "geometry": { "type": "Polygon", "coordinates": [ [ [ 137.675028969246625, -5.464961172768454 ], [ 137.674997038210591, -5.470741114700026 ], [ 137.673555071759665, -5.470733109214712 ], [ 137.673554072931665, -5.470913732113317 ], [ 137.675717024057747, -5.470925739444211 ], [ 137.675697053403013, -5.474538205125119 ], [ 137.677860022282147, -5.474550212650605 ], [ 137.677854032358653, -5.475633954646974 ], [ 137.68578497365101, -5.475677924427067 ], [ 137.685783977586311, -5.475858549547632 ], [ 137.685964227057013, -5.475859547677958 ], [ 137.685950279404267, -5.478388299696445 ], [ 137.689555290924943, -5.4784082602209 ], [ 137.689503484286973, -5.487800799965423 ], [ 137.689323230586041, -5.487799800732601 ], [ 137.689322233367562, -5.487980426430219 ], [ 137.691665534780697, -5.487993412661925 ], [ 137.691642605726628, -5.492147813245277 ], [ 137.691822861158357, -5.492148812567379 ], [ 137.691820866603308, -5.492510064826392 ], [ 137.694704959769268, -5.492526047665006 ], [ 137.694699977127215, -5.493429180933894 ], [ 137.694880233503483, -5.493430179565644 ], [ 137.694883223026181, -5.492888299509032 ], [ 137.704977624047899, -5.492944130806453 ], [ 137.704978617459062, -5.492763502271586 ], [ 137.699570891294314, -5.49273361478174 ], [ 137.699574871099429, -5.492011104584187 ], [ 137.696871022471726, -5.491996144520871 ], [ 137.696874009410948, -5.491454263344168 ], [ 137.694891193622965, -5.49144328596886 ], [ 137.69495587579911, -5.479702547944762 ], [ 137.699101687166745, -5.479725443812761 ], [ 137.699104665381043, -5.479183561189499 ], [ 137.699825677200664, -5.47918753976311 ], [ 137.699839568559213, -5.476658752190218 ], [ 137.700560577888723, -5.476662728051915 ], [ 137.700561569663734, -5.476482100226742 ], [ 137.696415774518925, -5.476459227969433 ], [ 137.69642471016391, -5.474833584315255 ], [ 137.69570469894785, -5.474648977854061 ], [ 137.69570668464587, -5.474287723956363 ], [ 137.694985681710079, -5.474283743973793 ], [ 137.694989653569678, -5.473561236691576 ], [ 137.69444890236403, -5.473558251533663 ], [ 137.694445923033982, -5.474100131699961 ], [ 137.693724921245234, -5.474096150336635 ], [ 137.69371697317581, -5.475541163000593 ], [ 137.683803228892629, -5.475486317033452 ], [ 137.683843066508587, -5.468261325698004 ], [ 137.677354202501135, -5.468225385763278 ], [ 137.677357193985785, -5.467683514913765 ], [ 137.67519425088102, -5.467671520588214 ], [ 137.675209213480429, -5.46496217214798 ], [ 137.675028969246625, -5.464961172768454 ] ] ] } },
{ "type": "Feature", "properties": { "zone_id": 3, "scenario": "noCheck4factor", "pixel_count": 5832, "area_m2": 2332800, "area_ha": 233.28, "input_file": "factor_suitability_2025_Depth_35m_2025_highest.tif", "salinity_min": 33.065, "salinity_max": 33.099, "salinity_mean": 33.094, "salinity_median": 33.099, "depth_min": 6.822, "depth_max": 15.86, "depth_mean": 10.994, "depth_median": 11.138, "temperature_min": 28.951, "temperature_max": 29.037, "temperature_mean": 28.965, "temperature_median": 28.951, "sedimentation_min": 10.687, "sedimentation_max": 16.128, "sedimentation_mean": 15.246, "sedimentation_median": 16.128, "depth_group": "35m", "source_zone_tif": "25_35m_2025_highest_noCheck4factor_zone.tif", "source_csv": "25_35m_2025_highest_noCheck4factor_ringkasan.csv" }, "geometry": { "type": "Polygon", "coordinates": [ [ [ 137.721660188497538, -5.474972322588499 ], [ 137.721655262335076, -5.475875480985412 ], [ 137.722196030489158, -5.475878442847654 ], [ 137.722116124856171, -5.490509612434876 ], [ 137.717068844470788, -5.490481875119261 ], [ 137.7170638973584, -5.491385028874111 ], [ 137.715982339022275, -5.49137907865101 ], [ 137.715981349176104, -5.491559709201299 ], [ 137.717423427654694, -5.491567642660939 ], [ 137.717361027996361, -5.502947381309706 ], [ 137.716459711641363, -5.502942412969045 ], [ 137.716447807869542, -5.505109979695771 ], [ 137.711941222227921, -5.505085107770952 ], [ 137.711940228676298, -5.505265737502328 ], [ 137.714463914848068, -5.505279670424447 ], [ 137.714449018993577, -5.507989123140453 ], [ 137.719856964166098, -5.508018958298224 ], [ 137.719907496762858, -5.498806767702412 ], [ 137.721169335559608, -5.498813710497656 ], [ 137.72117824074968, -5.497188027396862 ], [ 137.729830869777459, -5.497235549346383 ], [ 137.729840735308102, -5.495429218961926 ], [ 137.729299945394217, -5.495426253483603 ], [ 137.729364001655171, -5.483685109271887 ], [ 137.724316741841704, -5.483657467463741 ], [ 137.724363043833932, -5.475167756751873 ], [ 137.724002531338186, -5.475165783790289 ], [ 137.72400351580356, -5.474985151682636 ], [ 137.721660188497538, -5.474972322588499 ] ] ] } },
{ "type": "Feature", "properties": { "zone_id": 4, "scenario": "noCheck4factor", "pixel_count": 51, "area_m2": 20400, "area_ha": 2.04, "input_file": "factor_suitability_2025_Depth_35m_2025_highest.tif", "salinity_min": 33.065, "salinity_max": 33.065, "salinity_mean": 33.065, "salinity_median": 33.065, "depth_min": 6.979, "depth_max": 15.271, "depth_mean": 9.518, "depth_median": 8.757, "temperature_min": 29.037, "temperature_max": 29.037, "temperature_mean": 29.037, "temperature_median": 29.037, "sedimentation_min": 10.687, "sedimentation_max": 10.687, "sedimentation_mean": 10.687, "sedimentation_median": 10.687, "depth_group": "35m", "source_zone_tif": "25_35m_2025_highest_noCheck4factor_zone.tif", "source_csv": "25_35m_2025_highest_noCheck4factor_ringkasan.csv" }, "geometry": { "type": "Polygon", "coordinates": [ [ [ 137.720758291252082, -5.508023926066952 ], [ 137.720753333809881, -5.50892708264932 ], [ 137.721294131271605, -5.508930063149622 ], [ 137.721293139846921, -5.509110694560593 ], [ 137.721653671761658, -5.509112681354414 ], [ 137.721654663077771, -5.508932049877916 ], [ 137.725981055044485, -5.508955873650111 ], [ 137.72598204502512, -5.508775241386544 ], [ 137.721655654360887, -5.508751418400146 ], [ 137.721659619163347, -5.50802889247636 ], [ 137.720758291252082, -5.508023926066952 ] ] ] } },
{ "type": "Feature", "properties": { "zone_id": 5, "scenario": "noCheck4factor", "pixel_count": 203, "area_m2": 81200, "area_ha": 8.12, "input_file": "factor_suitability_2025_Depth_35m_2025_highest.tif", "salinity_min": 32.89, "salinity_max": 32.89, "salinity_mean": 32.89, "salinity_median": 32.89, "depth_min": 5.13, "depth_max": 11.032, "depth_mean": 6.939, "depth_median": 6.796, "temperature_min": 29.093, "temperature_max": 29.093, "temperature_mean": 29.093, "temperature_median": 29.093, "sedimentation_min": 9.216, "sedimentation_max": 9.216, "sedimentation_mean": 9.216, "sedimentation_median": 9.216, "depth_group": "35m", "source_zone_tif": "25_35m_2025_highest_noCheck4factor_zone.tif", "source_csv": "25_35m_2025_highest_noCheck4factor_ringkasan.csv" }, "geometry": { "type": "Polygon", "coordinates": [ [ [ 138.240301813864903, -6.125291505556224 ], [ 138.240293454857891, -6.126917934883987 ], [ 138.243904452406923, -6.126936517793449 ], [ 138.243897029974704, -6.12838223707644 ], [ 138.244077580629749, -6.128383165805883 ], [ 138.244076652760867, -6.128563880737747 ], [ 138.24443775427585, -6.128565738069832 ], [ 138.24444053743531, -6.128023593104659 ], [ 138.244079436283926, -6.128021735938087 ], [ 138.244093350135358, -6.125311011756886 ], [ 138.240301813864903, -6.125291505556224 ] ] ] } },
{ "type": "Feature", "properties": { "zone_id": 6, "scenario": "noCheck4factor", "pixel_count": 61, "area_m2": 24400, "area_ha": 2.44, "input_file": "factor_suitability_2025_Depth_35m_2025_highest.tif", "salinity_min": 32.868, "salinity_max": 32.868, "salinity_mean": 32.868, "salinity_median": 32.868, "depth_min": 7.248, "depth_max": 8.445, "depth_mean": 7.743, "depth_median": 7.731, "temperature_min": 29.014, "temperature_max": 29.014, "temperature_mean": 29.014, "temperature_median": 29.014, "sedimentation_min": 7.821, "sedimentation_max": 7.821, "sedimentation_mean": 7.821, "sedimentation_median": 7.821, "depth_group": "35m", "source_zone_tif": "25_35m_2025_highest_noCheck4factor_zone.tif", "source_csv": "25_35m_2025_highest_noCheck4factor_ringkasan.csv" }, "geometry": { "type": "Polygon", "coordinates": [ [ [ 138.276626584564667, -6.259755364931951 ], [ 138.276615342010047, -6.261923992667835 ], [ 138.276434741030783, -6.26192305497969 ], [ 138.27643380391001, -6.262103773921434 ], [ 138.277878613011922, -6.262111273908837 ], [ 138.277882359347075, -6.261388397261141 ], [ 138.277522094040563, -6.261205803743476 ], [ 138.277525840319896, -6.260482927286227 ], [ 138.276804374747684, -6.260298459265299 ], [ 138.276807184828215, -6.259756302230886 ], [ 138.276626584564667, -6.259755364931951 ] ] ] } },
{ "type": "Feature", "properties": { "zone_id": 7, "scenario": "noCheck4factor", "pixel_count": 9360, "area_m2": 3744000, "area_ha": 374.4, "input_file": "factor_suitability_2025_Depth_35m_2025_highest.tif", "salinity_min": 32.868, "salinity_max": 32.868, "salinity_mean": 32.868, "salinity_median": 32.868, "depth_min": 5.217, "depth_max": 15.287, "depth_mean": 7.605, "depth_median": 7.341, "temperature_min": 29.014, "temperature_max": 29.135, "temperature_mean": 29.017, "temperature_median": 29.014, "sedimentation_min": 6.178, "sedimentation_max": 8.312, "sedimentation_mean": 8.269, "sedimentation_median": 8.312, "depth_group": "35m", "source_zone_tif": "25_35m_2025_highest_noCheck4factor_zone.tif", "source_csv": "25_35m_2025_highest_noCheck4factor_ringkasan.csv" }, "geometry": { "type": "Polygon", "coordinates": [ [ [ 138.25805520998864, -6.288393292487081 ], [ 138.258022032366881, -6.294718350768605 ], [ 138.257118985338224, -6.294713605104187 ], [ 138.257072464238462, -6.303568677109467 ], [ 138.250931659044682, -6.303536319466258 ], [ 138.250919277942756, -6.30588561156966 ], [ 138.248390709098061, -6.305872261853822 ], [ 138.248386895087293, -6.306595119372951 ], [ 138.253082819489634, -6.306619904826614 ], [ 138.253070441969243, -6.308969200914752 ], [ 138.260656239803097, -6.309009164793911 ], [ 138.260606819129293, -6.318406406782271 ], [ 138.247963622609689, -6.318339639028315 ], [ 138.247976041693704, -6.315990353904477 ], [ 138.245447430139336, -6.315976968590412 ], [ 138.245441693590124, -6.317061251745614 ], [ 138.247247847892396, -6.317070815589212 ], [ 138.247218212435115, -6.322672952971498 ], [ 138.247398829957234, -6.32267390986638 ], [ 138.247420818681888, -6.318517484851439 ], [ 138.262231432276621, -6.318595685371699 ], [ 138.262220023269265, -6.320764282086268 ], [ 138.262942500005579, -6.320768087301888 ], [ 138.262944401283789, -6.320406654310783 ], [ 138.263125020412133, -6.320407605403425 ], [ 138.263125970947129, -6.320226888878372 ], [ 138.264570924471371, -6.32023449514759 ], [ 138.264577573938169, -6.318969477898817 ], [ 138.266925621507085, -6.318981827053308 ], [ 138.26692751947968, -6.318620392829228 ], [ 138.274332925780101, -6.318659268664556 ], [ 138.274333872161435, -6.318478550429838 ], [ 138.27090209391892, -6.318460548392713 ], [ 138.270954167650416, -6.308521071878436 ], [ 138.271496016401755, -6.308523911298058 ], [ 138.271540440707952, -6.300030169633443 ], [ 138.272262894369419, -6.300033949516034 ], [ 138.272263838654737, -6.299853231465636 ], [ 138.271902611893381, -6.299851341703721 ], [ 138.27190827777298, -6.298767033699949 ], [ 138.265948064522036, -6.298735822023377 ], [ 138.265954687852599, -6.297470802272984 ], [ 138.25818841339435, -6.297430038868738 ], [ 138.25823581729901, -6.288394240472091 ], [ 138.25805520998864, -6.288393292487081 ] ] ] } },
{ "type": "Feature", "properties": { "zone_id": 8, "scenario": "noCheck4factor", "pixel_count": 3110, "area_m2": 1244000, "area_ha": 124.4, "input_file": "factor_suitability_2025_Depth_35m_2025_highest.tif", "salinity_min": 32.868, "salinity_max": 32.868, "salinity_mean": 32.868, "salinity_median": 32.868, "depth_min": 6.302, "depth_max": 27.919, "depth_mean": 14.238, "depth_median": 14.061, "temperature_min": 29.135, "temperature_max": 29.135, "temperature_mean": 29.135, "temperature_median": 29.135, "sedimentation_min": 5.272, "sedimentation_max": 5.272, "sedimentation_mean": 5.272, "sedimentation_median": 5.272, "depth_group": "35m", "source_zone_tif": "25_35m_2025_highest_noCheck4factor_zone.tif", "source_csv": "25_35m_2025_highest_noCheck4factor_ringkasan.csv" }, "geometry": { "type": "Polygon", "coordinates": [ [ [ 138.181188432280265, -6.308585027126643 ], [ 138.18118745512777, -6.308765731110352 ], [ 138.181006852648977, -6.308764753363215 ], [ 138.181002943503756, -6.309487569171147 ], [ 138.174501264312966, -6.309452324618927 ], [ 138.174499305075216, -6.30981373047991 ], [ 138.174318703279766, -6.309812750252697 ], [ 138.174307924739225, -6.311800482076655 ], [ 138.172501901492296, -6.31179067325655 ], [ 138.172492093569304, -6.313597699210023 ], [ 138.172130888014721, -6.313595736130106 ], [ 138.172129906939972, -6.313776438661113 ], [ 138.171949304143197, -6.313775456999107 ], [ 138.171947341782868, -6.314136862000281 ], [ 138.171044327604108, -6.314131952469691 ], [ 138.171032547287723, -6.31630038065962 ], [ 138.171213150815788, -6.316301363030619 ], [ 138.171212168998977, -6.31648206539898 ], [ 138.177172103551669, -6.31651444950424 ], [ 138.177156423583455, -6.319405702146341 ], [ 138.178601268894056, -6.319413546202429 ], [ 138.178591470198143, -6.321220581181854 ], [ 138.179855715722027, -6.321227443424229 ], [ 138.179850817490973, -6.322130961849833 ], [ 138.180031424421344, -6.322131942061091 ], [ 138.18007547997658, -6.314000273696999 ], [ 138.190189356117401, -6.314054994629696 ], [ 138.190205924826529, -6.310983003454794 ], [ 138.189483506384477, -6.310979103229677 ], [ 138.189486430169552, -6.310436987435615 ], [ 138.181359262539246, -6.310393044839394 ], [ 138.181369034725179, -6.308586004783115 ], [ 138.181188432280265, -6.308585027126643 ] ] ] } },
{ "type": "Feature", "properties": { "zone_id": 9, "scenario": "noCheck4factor", "pixel_count": 1261, "area_m2": 504400, "area_ha": 50.44, "input_file": "factor_suitability_2025_Depth_35m_2025_highest.tif", "salinity_min": 32.868, "salinity_max": 32.868, "salinity_mean": 32.868, "salinity_median": 32.868, "depth_min": 4.336, "depth_max": 12.849, "depth_mean": 7.015, "depth_median": 6.678, "temperature_min": 29.014, "temperature_max": 29.014, "temperature_mean": 29.014, "temperature_median": 29.014, "sedimentation_min": 8.312, "sedimentation_max": 11.768, "sedimentation_mean": 11.557, "sedimentation_median": 11.768, "depth_group": "35m", "source_zone_tif": "25_35m_2025_highest_noCheck4factor_zone.tif", "source_csv": "25_35m_2025_highest_noCheck4factor_ringkasan.csv" }, "geometry": { "type": "Polygon", "coordinates": [ [ [ 138.299799714615602, -6.318972882939725 ], [ 138.299792212892072, -6.320418659400874 ], [ 138.294373485086169, -6.320390481324032 ], [ 138.294370665858963, -6.320932645037945 ], [ 138.2940084779176, -6.32111148551527 ], [ 138.293987792689848, -6.325087351144904 ], [ 138.288388417813223, -6.325058148883875 ], [ 138.288383705071794, -6.325961750410189 ], [ 138.288564329968978, -6.325962693493794 ], [ 138.288566215022769, -6.325601252833142 ], [ 138.30048751062759, -6.325663354283495 ], [ 138.300436798883254, -6.335422346724933 ], [ 138.30224310003095, -6.335431746827812 ], [ 138.302244978412119, -6.33507030219528 ], [ 138.302607177743141, -6.334891458982608 ], [ 138.302609055709524, -6.334530014233653 ], [ 138.300983386882649, -6.334521556768509 ], [ 138.301030328701813, -6.325485448392331 ], [ 138.29994656950791, -6.325479815369834 ], [ 138.29998033879977, -6.318973821022604 ], [ 138.299799714615602, -6.318972882939725 ] ] ] } },
{ "type": "Feature", "properties": { "zone_id": 10, "scenario": "noCheck4factor", "pixel_count": 6799, "area_m2": 2719600, "area_ha": 271.96, "input_file": "factor_suitability_2025_Depth_35m_2025_highest.tif", "salinity_min": 32.868, "salinity_max": 32.868, "salinity_mean": 32.868, "salinity_median": 32.868, "depth_min": 6.117, "depth_max": 19.142, "depth_mean": 10.777, "depth_median": 10.676, "temperature_min": 29.135, "temperature_max": 29.135, "temperature_mean": 29.135, "temperature_median": 29.135, "sedimentation_min": 5.232, "sedimentation_max": 6.178, "sedimentation_mean": 5.911, "sedimentation_median": 6.178, "depth_group": "35m", "source_zone_tif": "25_35m_2025_highest_noCheck4factor_zone.tif", "source_csv": "25_35m_2025_highest_noCheck4factor_ringkasan.csv" }, "geometry": { "type": "Polygon", "coordinates": [ [ [ 138.215088084865499, -6.318887445201051 ], [ 138.215071642037344, -6.32195950106356 ], [ 138.219586959033307, -6.321983681098667 ], [ 138.219512501122011, -6.335898335632328 ], [ 138.215358297943197, -6.335876042094958 ], [ 138.2153573284169, -6.33605675119857 ], [ 138.224026989744914, -6.336103240545449 ], [ 138.224021190050536, -6.337187503155774 ], [ 138.22546614292034, -6.33719523866413 ], [ 138.225465176707786, -6.337375949316598 ], [ 138.229980667585437, -6.337400097595799 ], [ 138.229971019592028, -6.339207210983494 ], [ 138.230151640219333, -6.33920817637644 ], [ 138.23015067532836, -6.339388887735233 ], [ 138.230331296046415, -6.33938985309316 ], [ 138.230509987177328, -6.339752241212647 ], [ 138.230690608076998, -6.339753206500522 ], [ 138.23070507651471, -6.337042534765428 ], [ 138.23702679274183, -6.337076265758487 ], [ 138.237035451025491, -6.335449853840777 ], [ 138.236132349427123, -6.335445041077922 ], [ 138.236154473056615, -6.331288657732763 ], [ 138.235070760710528, -6.331282884167654 ], [ 138.235082302102711, -6.329114338034393 ], [ 138.234721066381297, -6.329112413675789 ], [ 138.234722028107143, -6.328931701544295 ], [ 138.227316723103343, -6.328892198098484 ], [ 138.2273186516056, -6.328530776104929 ], [ 138.226957418672555, -6.328528846524539 ], [ 138.227008489672414, -6.318951164598274 ], [ 138.215088084865499, -6.318887445201051 ] ] ] } },
{ "type": "Feature", "properties": { "zone_id": 11, "scenario": "noCheck4factor", "pixel_count": 1773, "area_m2": 709200, "area_ha": 70.92, "input_file": "factor_suitability_2025_Depth_35m_2025_highest.tif", "salinity_min": 32.868, "salinity_max": 32.868, "salinity_mean": 32.868, "salinity_median": 32.868, "depth_min": 7.204, "depth_max": 21.408, "depth_mean": 13.683, "depth_median": 13.809, "temperature_min": 29.135, "temperature_max": 29.135, "temperature_mean": 29.135, "temperature_median": 29.135, "sedimentation_min": 4.17, "sedimentation_max": 5.272, "sedimentation_mean": 4.402, "sedimentation_median": 4.17, "depth_group": "35m", "source_zone_tif": "25_35m_2025_highest_noCheck4factor_zone.tif", "source_csv": "25_35m_2025_highest_noCheck4factor_ringkasan.csv" }, "geometry": { "type": "Polygon", "coordinates": [ [ [ 138.191730912992199, -6.329604447583226 ], [ 138.191695731327144, -6.336109844090485 ], [ 138.183748759662564, -6.336066739163576 ], [ 138.183747779109638, -6.336247443357081 ], [ 138.184289616521795, -6.336250386270989 ], [ 138.184278830625459, -6.338238133237187 ], [ 138.185001283666224, -6.338242057484742 ], [ 138.184985592941644, -6.341133327299482 ], [ 138.185166207276609, -6.341134308655509 ], [ 138.185177975251918, -6.338965855989992 ], [ 138.196014842316089, -6.339024602233473 ], [ 138.196050961907559, -6.332338476122277 ], [ 138.197857093180573, -6.332348234816501 ], [ 138.197858068219517, -6.332167528398018 ], [ 138.197135615620113, -6.332163625784746 ], [ 138.197141466760996, -6.331079387917844 ], [ 138.192084321816907, -6.331052046264149 ], [ 138.192092135776079, -6.329606401988626 ], [ 138.191730912992199, -6.329604447583226 ] ] ] } },
{ "type": "Feature", "properties": { "zone_id": 12, "scenario": "noCheck4factor", "pixel_count": 3617, "area_m2": 1446800, "area_ha": 144.68, "input_file": "factor_suitability_2025_Depth_35m_2025_highest.tif", "salinity_min": 32.868, "salinity_max": 32.868, "salinity_mean": 32.868, "salinity_median": 32.868, "depth_min": 5.453, "depth_max": 20.258, "depth_mean": 8.158, "depth_median": 7.779, "temperature_min": 29.014, "temperature_max": 29.014, "temperature_mean": 29.014, "temperature_median": 29.014, "sedimentation_min": 6.666, "sedimentation_max": 10.787, "sedimentation_mean": 7.981, "sedimentation_median": 6.666, "depth_group": "35m", "source_zone_tif": "25_35m_2025_highest_noCheck4factor_zone.tif", "source_csv": "25_35m_2025_highest_noCheck4factor_ringkasan.csv" }, "geometry": { "type": "Polygon", "coordinates": [ [ [ 138.271159899112661, -6.338160673174446 ], [ 138.271138031586247, -6.342317178041414 ], [ 138.270234892086563, -6.342312419497052 ], [ 138.270233940678935, -6.342493136946519 ], [ 138.270053312799178, -6.342492185021922 ], [ 138.270052361301111, -6.342672902442654 ], [ 138.269690153847847, -6.342851715715039 ], [ 138.269688250462281, -6.343213150440147 ], [ 138.26986887853775, -6.343214102599704 ], [ 138.269846983093913, -6.347370602164891 ], [ 138.270027612641258, -6.347371554890449 ], [ 138.270026660396269, -6.347552272273388 ], [ 138.271471698273501, -6.347559892034035 ], [ 138.271466939146421, -6.348463480020996 ], [ 138.271647569319612, -6.348464432344877 ], [ 138.271646617474062, -6.348645149965391 ], [ 138.280316901283442, -6.348690788899853 ], [ 138.280308360574764, -6.350317259206178 ], [ 138.285366071302548, -6.350343821890777 ], [ 138.285364176583613, -6.350705261245046 ], [ 138.290783180066654, -6.350733668188973 ], [ 138.290779397841305, -6.351456550139766 ], [ 138.29312764362902, -6.351468843649682 ], [ 138.293124809123384, -6.352011006155771 ], [ 138.295473061998678, -6.352023290093725 ], [ 138.295458898028585, -6.35473410771916 ], [ 138.296903986569191, -6.354741665031513 ], [ 138.296901154544656, -6.355283829168697 ], [ 138.297443063765513, -6.355286662366175 ], [ 138.297441175989604, -6.355648105279711 ], [ 138.299066906263164, -6.355656601960902 ], [ 138.29906407609235, -6.356198767051258 ], [ 138.299244713115002, -6.356199710893416 ], [ 138.299245656469765, -6.356018989170982 ], [ 138.299607873672926, -6.355840154834464 ], [ 138.299612589270197, -6.354936545923851 ], [ 138.300696409667353, -6.354942205764159 ], [ 138.300697352327347, -6.354761483815609 ], [ 138.299613532307546, -6.354755824137534 ], [ 138.299615418300164, -6.354394380560699 ], [ 138.298531600020283, -6.354388718941874 ], [ 138.298534429935927, -6.353846554053016 ], [ 138.298353793840448, -6.353845610310816 ], [ 138.298354737153772, -6.353664888705456 ], [ 138.298174101148533, -6.353663944927397 ], [ 138.298175044497384, -6.353483223347694 ], [ 138.297994408582412, -6.353482279533779 ], [ 138.297995351966762, -6.353301557979735 ], [ 138.297814716142057, -6.353300614129968 ], [ 138.297635967282758, -6.352938227213254 ], [ 138.297094060432386, -6.352935395260149 ], [ 138.297111984463413, -6.349501687985589 ], [ 138.294041203938946, -6.349485638305216 ], [ 138.29407517658268, -6.342979681818443 ], [ 138.29208823004322, -6.342969297783824 ], [ 138.292087286147989, -6.343150018523608 ], [ 138.291725079323726, -6.343328850330728 ], [ 138.291723191144996, -6.343690291694826 ], [ 138.291181296621687, -6.343687457664102 ], [ 138.291180352302831, -6.343868178262683 ], [ 138.29099972078717, -6.343867233433018 ], [ 138.290993109346857, -6.345132277394051 ], [ 138.288283633314506, -6.345118094561261 ], [ 138.28827985097675, -6.345840975165391 ], [ 138.281957755497729, -6.345807823108777 ], [ 138.281954911861447, -6.346349980692456 ], [ 138.281232388057106, -6.346346186658291 ], [ 138.281231439872016, -6.346526905741159 ], [ 138.280869229671282, -6.346705727319603 ], [ 138.280866384491219, -6.347247884392248 ], [ 138.271654231464254, -6.347199408962068 ], [ 138.271694175883482, -6.339609267225107 ], [ 138.271513548786515, -6.339608316240057 ], [ 138.271519251527479, -6.338524010240143 ], [ 138.271338624834556, -6.338523059356268 ], [ 138.271340525652505, -6.338161624066426 ], [ 138.271159899112661, -6.338160673174446 ] ] ] } },
{ "type": "Feature", "properties": { "zone_id": 13, "scenario": "noCheck4factor", "pixel_count": 527111, "area_m2": 210844400, "area_ha": 21084.44, "input_file": "factor_suitability_2025_Depth_35m_2025_highest.tif", "salinity_min": 32.86, "salinity_max": 32.876, "salinity_mean": 32.869, "salinity_median": 32.866, "depth_min": 4.819, "depth_max": 28.324, "depth_mean": 10.186, "depth_median": 9.675, "temperature_min": 28.936, "temperature_max": 29.149, "temperature_mean": 29.057, "temperature_median": 29.073, "sedimentation_min": 2.825, "sedimentation_max": 13.455, "sedimentation_mean": 6.212, "sedimentation_median": 5.805, "depth_group": "35m", "source_zone_tif": "25_35m_2025_highest_noCheck4factor_zone.tif", "source_csv": "25_35m_2025_highest_noCheck4factor_ringkasan.csv" }, "geometry": { "type": "Polygon", "coordinates": [ [ [ 138.206654649054997, -6.342154180450467 ], [ 138.206652701975031, -6.34251559587693 ], [ 138.206110847594175, -6.342512673441572 ], [ 138.206109873823465, -6.342693381068774 ], [ 138.210625336346254, -6.3427177181298 ], [ 138.210559160310908, -6.355005881002393 ], [ 138.201708661111269, -6.354958050227519 ], [ 138.201674441078438, -6.36128278942322 ], [ 138.211608800642466, -6.36133652049349 ], [ 138.21156002783485, -6.370371936129143 ], [ 138.211921285184843, -6.370373889188944 ], [ 138.211939824779222, -6.366940430601719 ], [ 138.213565473476791, -6.366949211476282 ], [ 138.213566448395369, -6.366768502864278 ], [ 138.213927703846167, -6.366770453420608 ], [ 138.213933552008797, -6.36568620138414 ], [ 138.223145584847316, -6.365735846863976 ], [ 138.223144613436574, -6.365916556960783 ], [ 138.23073105103785, -6.365957319562912 ], [ 138.230673844220348, -6.376619281593999 ], [ 138.228686874378724, -6.376608598414921 ], [ 138.228683960864885, -6.377150731030882 ], [ 138.226155092422744, -6.377137122043741 ], [ 138.225972514797149, -6.37749757040365 ], [ 138.225430614839127, -6.377494652226099 ], [ 138.225429642419527, -6.377675362592597 ], [ 138.223262044361491, -6.377663683866484 ], [ 138.223256204708889, -6.378747944034493 ], [ 138.22289493800244, -6.37874599636249 ], [ 138.222892990973946, -6.379107416295962 ], [ 138.222170457393787, -6.379103519971649 ], [ 138.22216753588242, -6.379645649527495 ], [ 138.2216256354248, -6.379642726370768 ], [ 138.221611995702716, -6.382172662961506 ], [ 138.220166921982923, -6.382164861980892 ], [ 138.220157170891923, -6.38397195714969 ], [ 138.210402936387482, -6.383919179704614 ], [ 138.210404893653418, -6.383557763693964 ], [ 138.207514767938477, -6.383542091435449 ], [ 138.207511828965039, -6.384084214107697 ], [ 138.21004069122273, -6.384097929392603 ], [ 138.210032859790942, -6.385543592920319 ], [ 138.212381100563761, -6.385556320354897 ], [ 138.212359572871719, -6.389531902576609 ], [ 138.213624021922925, -6.3895387556837 ], [ 138.213588781233057, -6.396044259420333 ], [ 138.219549849116049, -6.396076558291402 ], [ 138.219538119153981, -6.398245070167516 ], [ 138.2258605240051, -6.398279262874859 ], [ 138.225859548541223, -6.398459973162144 ], [ 138.226762752364777, -6.398464851639062 ], [ 138.226760801985847, -6.398826272487157 ], [ 138.226941442961561, -6.398827248048046 ], [ 138.226923885631294, -6.40208003592592 ], [ 138.22764645437573, -6.402083939535255 ], [ 138.227645478954855, -6.402264650070533 ], [ 138.229090618299438, -6.40227245446886 ], [ 138.229086718362595, -6.402995297484037 ], [ 138.229267361160538, -6.402996272859593 ], [ 138.229259560445541, -6.404441959043947 ], [ 138.230524064366506, -6.404448786451382 ], [ 138.230516265403651, -6.405894474098628 ], [ 138.231780774250097, -6.405901299951955 ], [ 138.231777850507171, -6.40644343337862 ], [ 138.232319783861499, -6.406446358042485 ], [ 138.232498479574048, -6.4068087553027 ], [ 138.234485572403401, -6.406819474098082 ], [ 138.2344621948547, -6.411156550959826 ], [ 138.234823487869164, -6.411158500336454 ], [ 138.234822513581065, -6.411339211910033 ], [ 138.239699981958438, -6.411365504390786 ], [ 138.239697064065922, -6.411907641344206 ], [ 138.24457455798364, -6.411933889786361 ], [ 138.244549303597211, -6.416632428904506 ], [ 138.244729953561972, -6.416633400897721 ], [ 138.244728981925789, -6.416814113949186 ], [ 138.245270932178272, -6.416817029630415 ], [ 138.245268989203197, -6.417178455894642 ], [ 138.245810940088063, -6.417181371169583 ], [ 138.245773037179532, -6.424229185415651 ], [ 138.251734595278265, -6.424261251160885 ], [ 138.251677298154306, -6.434923378669 ], [ 138.242102490337345, -6.434871759204112 ], [ 138.242100539610391, -6.435233184245745 ], [ 138.242642508151562, -6.435236111046556 ], [ 138.242821214058637, -6.435598511776282 ], [ 138.248060260760099, -6.435626774371344 ], [ 138.24799400876384, -6.447915284124505 ], [ 138.247632685772544, -6.447913332951699 ], [ 138.247631710388021, -6.448094046226183 ], [ 138.247089725918954, -6.448091118905425 ], [ 138.24708582333588, -6.448813971658273 ], [ 138.246724499985447, -6.448812019571273 ], [ 138.246723524142197, -6.448992732700774 ], [ 138.24654286244504, -6.448991756533916 ], [ 138.2465233384398, -6.452606018273146 ], [ 138.239116180558881, -6.452565917808288 ], [ 138.23911520144668, -6.45274662974805 ], [ 138.244173744992452, -6.452774027833049 ], [ 138.244160059524717, -6.455304005669841 ], [ 138.24668935203843, -6.455317691335463 ], [ 138.246642431816468, -6.463991917479072 ], [ 138.246823098846193, -6.463992895870904 ], [ 138.246840700317449, -6.460740060955988 ], [ 138.258042039229821, -6.460800565532676 ], [ 138.257995272331272, -6.469474872844623 ], [ 138.258175943037116, -6.469475848027929 ], [ 138.258220759650015, -6.461162968989621 ], [ 138.271409581245422, -6.46123389233656 ], [ 138.271401828637295, -6.462679626646554 ], [ 138.274292557178029, -6.462695129430875 ], [ 138.274237326973434, -6.472996008661203 ], [ 138.272791932619441, -6.472988246863847 ], [ 138.272789992060979, -6.47334968070169 ], [ 138.274596736561676, -6.473359382853539 ], [ 138.274593827439219, -6.473901534418849 ], [ 138.27712327707593, -6.473915107807856 ], [ 138.277076740379215, -6.482589549442117 ], [ 138.28213574208965, -6.482616695145723 ], [ 138.282111523966307, -6.487134651268277 ], [ 138.282292204604005, -6.487135620507408 ], [ 138.282290266538155, -6.487497057013077 ], [ 138.28319367078231, -6.487501902517253 ], [ 138.283187857850322, -6.488586212816514 ], [ 138.284452627647653, -6.488592994966678 ], [ 138.284429376794321, -6.492930240219969 ], [ 138.286055525255733, -6.4929389613745 ], [ 138.28604390082279, -6.49510758662918 ], [ 138.287128005665664, -6.495113399795571 ], [ 138.287141561717618, -6.492583334695264 ], [ 138.299066720882905, -6.492647101633083 ], [ 138.299040686840669, -6.497526560966899 ], [ 138.302654429754341, -6.497545843582301 ], [ 138.302633230378717, -6.501521710462067 ], [ 138.307873218104191, -6.501549641754329 ], [ 138.307865520894012, -6.502995417619903 ], [ 138.308407591446866, -6.502998304620244 ], [ 138.308404705121944, -6.503540470788931 ], [ 138.308766086013435, -6.503542395295551 ], [ 138.308765123979356, -6.503723117402843 ], [ 138.309849267695512, -6.503728889538507 ], [ 138.309844459047554, -6.504632500862134 ], [ 138.31219344465606, -6.504645000951642 ], [ 138.312189600595985, -6.505367891385526 ], [ 138.312731675625599, -6.505370774798434 ], [ 138.312729753818445, -6.505732220168332 ], [ 138.312910445678369, -6.505733181230942 ], [ 138.312913328154906, -6.505191013093196 ], [ 138.314900938287053, -6.505201579641135 ], [ 138.314916296016236, -6.502310011286661 ], [ 138.315639060032595, -6.502313850013548 ], [ 138.315640978743261, -6.501952403728354 ], [ 138.315821669686699, -6.501953363195287 ], [ 138.315835096709833, -6.499423238662446 ], [ 138.317641998629256, -6.499432826026674 ], [ 138.317646789483291, -6.498529208710249 ], [ 138.318008169550239, -6.498531125141918 ], [ 138.318011043350026, -6.497988954573714 ], [ 138.318372423139721, -6.49799087058673 ], [ 138.318374338612784, -6.497629423426662 ], [ 138.318916408115314, -6.497632296802322 ], [ 138.318918323093527, -6.497270849475378 ], [ 138.32036384193421, -6.497278508549176 ], [ 138.320367669505487, -6.496555613018939 ], [ 138.320548359225597, -6.496556570006206 ], [ 138.320557925607488, -6.49474933081228 ], [ 138.331037938518506, -6.494804710438249 ], [ 138.331023643892422, -6.497515592482083 ], [ 138.332288485958884, -6.497522264401649 ], [ 138.332246539737241, -6.505474191444568 ], [ 138.337667391453124, -6.505502784907288 ], [ 138.337668343425577, -6.505322058522432 ], [ 138.337849038837334, -6.505323010612386 ], [ 138.337851894399279, -6.504780831369238 ], [ 138.338032589644769, -6.504781783314752 ], [ 138.338037348052382, -6.50387815108095 ], [ 138.338940823074608, -6.503882909175473 ], [ 138.338941774353032, -6.503702182591118 ], [ 138.33930316442212, -6.503704085324652 ], [ 138.339308870753001, -6.50261972546868 ], [ 138.342561379276759, -6.502636835597663 ], [ 138.342580370184095, -6.499022292783866 ], [ 138.344568004419614, -6.499032732845604 ], [ 138.344568952973901, -6.498852005397215 ], [ 138.345833812370756, -6.498858644831023 ], [ 138.345834760447588, -6.498677917195042 ], [ 138.344569901501245, -6.498671277947401 ], [ 138.344587918401885, -6.49523745613015 ], [ 138.344407225596967, -6.495236507914155 ], [ 138.344409121675682, -6.494875053009305 ], [ 138.343867043808416, -6.494872208134929 ], [ 138.343919154346565, -6.484932200409462 ], [ 138.34590673549522, -6.484942612693 ], [ 138.34590768149863, -6.484761884947387 ], [ 138.34644974945752, -6.484764723232384 ], [ 138.346463933388549, -6.48205380568124 ], [ 138.356221146023728, -6.482104774462198 ], [ 138.356185333427874, -6.488972486083592 ], [ 138.356366025729869, -6.488973429190561 ], [ 138.35640748657994, -6.481021340697133 ], [ 138.362008873635148, -6.481050509046621 ], [ 138.362032358080739, -6.476532255220709 ], [ 138.367453031597279, -6.476560404113376 ], [ 138.367453968703074, -6.47637967314992 ], [ 138.367634658170346, -6.476380610425558 ], [ 138.367647773949528, -6.473850376419082 ], [ 138.368009151168707, -6.473852250039586 ], [ 138.368026004315368, -6.470599090673733 ], [ 138.37940936862509, -6.470657948578356 ], [ 138.379394453085865, -6.473549672334829 ], [ 138.380297904350755, -6.473554334800141 ], [ 138.380296972224158, -6.473735067654122 ], [ 138.381381115003677, -6.473740660653673 ], [ 138.381318627778484, -6.485849769189835 ], [ 138.374452242954305, -6.485814240990956 ], [ 138.374451306964914, -6.485994972907777 ], [ 138.376077553107962, -6.486003396102569 ], [ 138.376054159174146, -6.490521699477902 ], [ 138.387076648909328, -6.490578692843008 ], [ 138.387016935811715, -6.502145647847487 ], [ 138.37689769451606, -6.502093241071417 ], [ 138.376882691557057, -6.504984955412294 ], [ 138.377063392594181, -6.504985893439415 ], [ 138.377056827108049, -6.506251018532916 ], [ 138.377779633326696, -6.506254770732645 ], [ 138.377762749300757, -6.509507951115853 ], [ 138.381918920002164, -6.509529517118293 ], [ 138.381890805307847, -6.514951501510498 ], [ 138.383697859783496, -6.514960875258812 ], [ 138.383685677714283, -6.517310404839185 ], [ 138.385312036563988, -6.51731883876004 ], [ 138.385328892394369, -6.51406563964736 ], [ 138.395448441752535, -6.514117973510027 ], [ 138.395421385734977, -6.519359280979047 ], [ 138.397951312246136, -6.519372343411032 ], [ 138.397930792059753, -6.52334851493195 ], [ 138.398111502715551, -6.523349448051891 ], [ 138.398133886189328, -6.519011805732868 ], [ 138.40735008553952, -6.519059277299219 ], [ 138.407331499587684, -6.522674005830752 ], [ 138.407873634970542, -6.522676794602564 ], [ 138.407824341578362, -6.532255826584876 ], [ 138.404390756372294, -6.532238128370585 ], [ 138.404366515710421, -6.536937261832698 ], [ 138.403101501249466, -6.536930730814225 ], [ 138.403100568107391, -6.537111466515261 ], [ 138.40328128444466, -6.537112399738216 ], [ 138.403249544132706, -6.543257413608209 ], [ 138.405237449813512, -6.543267684512717 ], [ 138.405216911420354, -6.547243875371662 ], [ 138.410096368296166, -6.547269067943794 ], [ 138.410031056764183, -6.559920628798737 ], [ 138.407681627160173, -6.55990848131994 ], [ 138.407672277974712, -6.561715843208775 ], [ 138.42194970076423, -6.561789513515135 ], [ 138.421945980897959, -6.562512466415864 ], [ 138.430078774862551, -6.562554253755877 ], [ 138.430074139071735, -6.563457950652555 ], [ 138.431519977246808, -6.563465366756896 ], [ 138.431518123788408, -6.563826845917442 ], [ 138.431698853807688, -6.563827772689288 ], [ 138.431877730550553, -6.564190178653852 ], [ 138.447059158184913, -6.564267794134183 ], [ 138.4470582369581, -6.564448535916069 ], [ 138.450130692132831, -6.564464188402146 ], [ 138.450121489498486, -6.566271610488505 ], [ 138.450302223039472, -6.566272530893013 ], [ 138.450325223145484, -6.561753974770467 ], [ 138.451771079396565, -6.561761330555849 ], [ 138.451828017629055, -6.550555294852973 ], [ 138.461406643596604, -6.550603838073917 ], [ 138.461401158433063, -6.551688301485722 ], [ 138.461581888311002, -6.551689215795484 ], [ 138.461616609546581, -6.544820945688024 ], [ 138.471195199229129, -6.544869260066444 ], [ 138.47117881884958, -6.548122675645184 ], [ 138.472805389492663, -6.548130865981514 ], [ 138.472830850144646, -6.543069990720987 ], [ 138.472107936866507, -6.543066354056943 ], [ 138.47211066437859, -6.542524117659652 ], [ 138.469580473861924, -6.54251138222982 ], [ 138.469599579034082, -6.538715734540935 ], [ 138.467973042894613, -6.53870754556192 ], [ 138.46798305225829, -6.536719351414106 ], [ 138.464549274118468, -6.536702051639461 ], [ 138.464605708603358, -6.525495893133614 ], [ 138.46478642952502, -6.525496802656064 ], [ 138.464789157522887, -6.524954568965319 ], [ 138.465512040690953, -6.524958206103696 ], [ 138.465554736945876, -6.516463205173856 ], [ 138.466277608379499, -6.516466836504277 ], [ 138.466281238446726, -6.515743857150888 ], [ 138.47513643420865, -6.515788252130268 ], [ 138.475137338497944, -6.515607506046615 ], [ 138.466101428325061, -6.515562204700192 ], [ 138.46610233581643, -6.515381459882272 ], [ 138.465740900874323, -6.51537964452174 ], [ 138.465741808469062, -6.515198899753186 ], [ 138.465199656442422, -6.515196176304342 ], [ 138.465201471942066, -6.514834686915346 ], [ 138.464840037644478, -6.514832871061571 ], [ 138.464880864988686, -6.506699360597249 ], [ 138.463073724072046, -6.506690288889098 ], [ 138.463075538700764, -6.506328799976767 ], [ 138.462715018488808, -6.506146240555649 ], [ 138.462719555125886, -6.50524251849718 ], [ 138.462358128385745, -6.505240703530699 ], [ 138.462359943118116, -6.504879214799098 ], [ 138.453685738476537, -6.504835580695151 ], [ 138.453689380004903, -6.504112608104892 ], [ 138.450978707120271, -6.504098943523203 ], [ 138.451000570797646, -6.499761116695055 ], [ 138.450819861024797, -6.499760205820301 ], [ 138.450811663312095, -6.501386890746547 ], [ 138.450269532409948, -6.501384157046199 ], [ 138.450264976253578, -6.502287870461431 ], [ 138.450084265682534, -6.502286958971406 ], [ 138.450078797054545, -6.503371414869688 ], [ 138.437790512738957, -6.503309271949454 ], [ 138.437813402029292, -6.498790748905509 ], [ 138.435102791392552, -6.4987770104269 ], [ 138.435167776870514, -6.485944427510388 ], [ 138.438601131239324, -6.485961792494945 ], [ 138.438602044370185, -6.485781051351671 ], [ 138.438421341338909, -6.485780138009155 ], [ 138.438422254508055, -6.485599396890128 ], [ 138.432459071187424, -6.485569221383924 ], [ 138.432475541938913, -6.482315896261445 ], [ 138.431391336772208, -6.482310405066026 ], [ 138.431393167105256, -6.481948924777332 ], [ 138.431212466463734, -6.48194800940477 ], [ 138.431213381655368, -6.481767269284039 ], [ 138.429406377316155, -6.48175811228362 ], [ 138.429432925148376, -6.47651665563359 ], [ 138.423108495651462, -6.476484581730023 ], [ 138.423134170073268, -6.47142388910598 ], [ 138.420243041692515, -6.471409212141829 ], [ 138.420245794384414, -6.470866996249142 ], [ 138.412656622356167, -6.470828394387309 ], [ 138.412662143183184, -6.469743969086113 ], [ 138.412300755961809, -6.469742128392495 ], [ 138.412305356569959, -6.468838440861876 ], [ 138.412124663318991, -6.468837520548544 ], [ 138.412126503506641, -6.468476045578259 ], [ 138.411403731278, -6.468472363891482 ], [ 138.411406492131363, -6.467930151736612 ], [ 138.411225799332016, -6.467929231232506 ], [ 138.411230400549329, -6.467025544409145 ], [ 138.40291857493159, -6.466983137926225 ], [ 138.402919498042593, -6.466802401752198 ], [ 138.40219673348571, -6.466798707929192 ], [ 138.402190269362023, -6.468063860389128 ], [ 138.409960029701523, -6.468103523088414 ], [ 138.409910269066472, -6.477863328648186 ], [ 138.408826092768919, -6.477857793022181 ], [ 138.408805789478748, -6.481834005494178 ], [ 138.398325385557143, -6.481780342140427 ], [ 138.398332799829376, -6.480334458844569 ], [ 138.396887237943048, -6.480327041718357 ], [ 138.396914115404002, -6.475085720059703 ], [ 138.396733422147605, -6.475084793386308 ], [ 138.396731569114337, -6.475446263831587 ], [ 138.396550875756105, -6.475445337041886 ], [ 138.396547169116161, -6.47616827781114 ], [ 138.382091765660135, -6.476093918420774 ], [ 138.382142976912832, -6.466153595932839 ], [ 138.382504352881966, -6.466155457037174 ], [ 138.382506213339497, -6.465793990579322 ], [ 138.382144837626498, -6.465792129579878 ], [ 138.382187604725061, -6.457478401900815 ], [ 138.373514760804198, -6.457433719051919 ], [ 138.373521285399846, -6.456168595142612 ], [ 138.372437186906922, -6.456163000529108 ], [ 138.372438119269049, -6.455982268694306 ], [ 138.36629491478385, -6.455950523292359 ], [ 138.366304258673097, -6.454143213826206 ], [ 138.366123577294587, -6.45414227928261 ], [ 138.366126380132187, -6.453600086494347 ], [ 138.365945698972126, -6.453599151965976 ], [ 138.365949435970521, -6.452876228334045 ], [ 138.365588074241771, -6.452874359296624 ], [ 138.365589008552405, -6.452693628437881 ], [ 138.365046966351372, -6.452690824481534 ], [ 138.365063782822858, -6.449437670207715 ], [ 138.35910137244241, -6.44940680441743 ], [ 138.359109796396353, -6.447780234956857 ], [ 138.358748440277651, -6.447778362543174 ], [ 138.358749376266303, -6.447597632648956 ], [ 138.358388956472027, -6.447415030190013 ], [ 138.358395508348707, -6.446149921251473 ], [ 138.357492121661522, -6.446145239651878 ], [ 138.357495866278185, -6.445422320756656 ], [ 138.355327744026624, -6.445411079675981 ], [ 138.355339921023784, -6.443061597241413 ], [ 138.348835607318961, -6.443027831252933 ], [ 138.34884217836148, -6.441762731911751 ], [ 138.348661503924319, -6.441761792972894 ], [ 138.348709342148425, -6.432544639895913 ], [ 138.351419412768422, -6.432558696973078 ], [ 138.351452169036747, -6.426233183704788 ], [ 138.351813507786659, -6.426235055041666 ], [ 138.351814443069344, -6.426054326012718 ], [ 138.345310364310222, -6.426020603951349 ], [ 138.345320675838963, -6.424032595056957 ], [ 138.343514000480099, -6.424023216104771 ], [ 138.343515876225581, -6.423661760455822 ], [ 138.342973874524716, -6.423658945689113 ], [ 138.342976688513318, -6.423116762444623 ], [ 138.342434687627332, -6.423113947344859 ], [ 138.342437501945767, -6.422571764327236 ], [ 138.342076168538028, -6.422569887435699 ], [ 138.341897378333698, -6.422207493702118 ], [ 138.34027138072048, -6.422199044448312 ], [ 138.340283582514502, -6.419849588676375 ], [ 138.340102917074319, -6.419848649898699 ], [ 138.340113238808414, -6.417860648968 ], [ 138.339932574094234, -6.417859710419815 ], [ 138.339941017293881, -6.416233164316821 ], [ 138.339037696986566, -6.416228471821614 ], [ 138.339085516705609, -6.407011381879736 ], [ 138.339988820826164, -6.407016067579717 ], [ 138.339989757449104, -6.406835340156141 ], [ 138.340351079159262, -6.406837213938658 ], [ 138.340352015628355, -6.406656486460394 ], [ 138.340532676460469, -6.406657423229833 ], [ 138.340536421813596, -6.405934513196164 ], [ 138.3408977430513, -6.405936386331599 ], [ 138.340901487465658, -6.405213476062352 ], [ 138.341082147871276, -6.40521441242837 ], [ 138.341114890878913, -6.3988889456813 ], [ 138.350689813334441, -6.398938432985894 ], [ 138.350690745006204, -6.39875770393034 ], [ 138.349968106966969, -6.398753975356501 ], [ 138.350015599526245, -6.389536797077398 ], [ 138.348389694565782, -6.389528416265507 ], [ 138.348398073475153, -6.387901857164789 ], [ 138.348217418072068, -6.387900925886083 ], [ 138.348219279882727, -6.38753946834585 ], [ 138.347857969410114, -6.387537605704884 ], [ 138.347858900401576, -6.38735687698579 ], [ 138.34514907623435, -6.387342899511172 ], [ 138.345103379524033, -6.396198585564053 ], [ 138.330470182672741, -6.396122755418082 ], [ 138.330487069026276, -6.392869685523573 ], [ 138.329945105594817, -6.392866870461948 ], [ 138.329961986596658, -6.38961380155651 ], [ 138.329781333312496, -6.38961286355739 ], [ 138.329783208564521, -6.389251411482201 ], [ 138.329421902330438, -6.389249535401103 ], [ 138.329418151212082, -6.389972439331898 ], [ 138.329779457952213, -6.389974315626963 ], [ 138.329726903902326, -6.400094971294814 ], [ 138.318526225579575, -6.400036595390233 ], [ 138.318529054911181, -6.399494422504701 ], [ 138.317806434847228, -6.399490648273098 ], [ 138.317814923654453, -6.397864130507524 ], [ 138.317272960602253, -6.397861299893773 ], [ 138.31709419291505, -6.397498908036257 ], [ 138.316190922474675, -6.397494189031432 ], [ 138.316193753134286, -6.396952017134701 ], [ 138.316013099317814, -6.396951073224311 ], [ 138.316010268468204, -6.397493245040399 ], [ 138.306796950259042, -6.397445017488609 ], [ 138.306798843978669, -6.397083572359276 ], [ 138.30625688667314, -6.397080730474618 ], [ 138.306257833681968, -6.396900007988771 ], [ 138.303909355688518, -6.396887686917763 ], [ 138.303912199020544, -6.396345520504429 ], [ 138.301021773947781, -6.396330342709562 ], [ 138.301066334950036, -6.387836420897589 ], [ 138.300885686589254, -6.387835473017515 ], [ 138.300884739048854, -6.388016194763511 ], [ 138.297452424193324, -6.387998172509469 ], [ 138.29744957780369, -6.388540336197191 ], [ 138.288236561399913, -6.388491843611328 ], [ 138.288243225164479, -6.387226804666243 ], [ 138.287881932744057, -6.387224900023615 ], [ 138.287893354723906, -6.385056262323504 ], [ 138.285364321479733, -6.385042927306769 ], [ 138.285368131465503, -6.384320049550168 ], [ 138.281574597021574, -6.384300026075103 ], [ 138.281534514444985, -6.391890217400117 ], [ 138.270876397512382, -6.391833744182128 ], [ 138.270889816018212, -6.38930370321559 ], [ 138.262038276156346, -6.389256653043557 ], [ 138.262043082657584, -6.388353073624327 ], [ 138.260417299704415, -6.388344416478584 ], [ 138.260447102158253, -6.382742230945286 ], [ 138.260266461705839, -6.382741269574494 ], [ 138.260316396278, -6.373344053518506 ], [ 138.263929144953124, -6.373363240410689 ], [ 138.263930103236049, -6.373182524131629 ], [ 138.264291378587728, -6.373184441377759 ], [ 138.264293294818032, -6.372823008705823 ], [ 138.265015845349552, -6.372826842221703 ], [ 138.265025422315091, -6.371019677681903 ], [ 138.2745992252608, -6.371070361963485 ], [ 138.274582999594713, -6.374142566232774 ], [ 138.274763639204963, -6.374143521300726 ], [ 138.274726387914455, -6.381191518859565 ], [ 138.275087672141325, -6.381193430934847 ], [ 138.275144002914629, -6.370531071603765 ], [ 138.269724862810818, -6.370502412287094 ], [ 138.269727730193068, -6.369960260750517 ], [ 138.267921357581713, -6.369950695850054 ], [ 138.26795194766018, -6.364167754092393 ], [ 138.26668750259438, -6.364161061039511 ], [ 138.266705660412725, -6.360727442330283 ], [ 138.266163759389059, -6.360724574494251 ], [ 138.26616662606537, -6.360182424371797 ], [ 138.265985992635052, -6.360181468382632 ], [ 138.265942963473208, -6.368313717660582 ], [ 138.254382300256282, -6.368252324350892 ], [ 138.254396710033603, -6.365541601248124 ], [ 138.254036403587548, -6.365358964540902 ], [ 138.254074802976078, -6.358130370197801 ], [ 138.252449126079142, -6.358121728779661 ], [ 138.252445285878707, -6.358844587324873 ], [ 138.250097086626539, -6.358832094843256 ], [ 138.250092281659022, -6.359735666203941 ], [ 138.240880144833028, -6.359686547459727 ], [ 138.240882073322666, -6.359325121733266 ], [ 138.240340185561195, -6.359322227461105 ], [ 138.240354648499505, -6.356611535576922 ], [ 138.238728995218935, -6.356602853092539 ], [ 138.238731888749754, -6.35606071542413 ], [ 138.238370633150311, -6.356058785456828 ], [ 138.238376420211125, -6.354974510413908 ], [ 138.234763877922745, -6.354955200217933 ], [ 138.234767740433966, -6.354232352375065 ], [ 138.234045234326942, -6.354228487759078 ], [ 138.234049097395797, -6.353505640336837 ], [ 138.233687845013407, -6.353503707873003 ], [ 138.233696536410093, -6.351877301589361 ], [ 138.232793408773432, -6.351872470575807 ], [ 138.232797272144524, -6.351149623856225 ], [ 138.232616646952721, -6.351148657575711 ], [ 138.232617612788232, -6.350967945920015 ], [ 138.231895112552763, -6.350964080280059 ], [ 138.231537727173077, -6.350239301111231 ], [ 138.230995853213386, -6.350236401176554 ], [ 138.230994886924492, -6.350417112588384 ], [ 138.230453013028836, -6.350414212004714 ], [ 138.230452046523396, -6.350594923331946 ], [ 138.219795240926487, -6.350537761895891 ], [ 138.219800091708493, -6.349634213442882 ], [ 138.218535733642284, -6.349627418029695 ], [ 138.218548348095482, -6.34727819442142 ], [ 138.214213436240414, -6.347254881175703 ], [ 138.214240631839914, -6.34219503286721 ], [ 138.206654649054997, -6.342154180450467 ] ] ] } },
{ "type": "Feature", "properties": { "zone_id": 14, "scenario": "noCheck4factor", "pixel_count": 187, "area_m2": 74800, "area_ha": 7.48, "input_file": "factor_suitability_2025_Depth_35m_2025_highest.tif", "salinity_min": 32.868, "salinity_max": 32.868, "salinity_mean": 32.868, "salinity_median": 32.868, "depth_min": 6.886, "depth_max": 13.983, "depth_mean": 8.956, "depth_median": 8.682, "temperature_min": 29.014, "temperature_max": 29.014, "temperature_mean": 29.014, "temperature_median": 29.014, "sedimentation_min": 10.787, "sedimentation_max": 10.787, "sedimentation_mean": 10.787, "sedimentation_median": 10.787, "depth_group": "35m", "source_zone_tif": "25_35m_2025_highest_noCheck4factor_zone.tif", "source_csv": "25_35m_2025_highest_noCheck4factor_ringkasan.csv" }, "geometry": { "type": "Polygon", "coordinates": [ [ [ 138.293393361216204, -6.369723536933757 ], [ 138.293375354927406, -6.373157230934422 ], [ 138.294639850165993, -6.373163867997304 ], [ 138.294638902633835, -6.373344588909853 ], [ 138.29481954498354, -6.373345536836353 ], [ 138.294831859943173, -6.370996164511558 ], [ 138.296457634945142, -6.371004689841214 ], [ 138.296640169685816, -6.370644194325799 ], [ 138.295556320030073, -6.37063851204396 ], [ 138.295379465826869, -6.369914680599954 ], [ 138.295018183386787, -6.369912786091878 ], [ 138.295019130271868, -6.369732065098489 ], [ 138.293393361216204, -6.369723536933757 ] ] ] } },
{ "type": "Feature", "properties": { "zone_id": 15, "scenario": "noCheck4factor", "pixel_count": 583, "area_m2": 233200, "area_ha": 23.32, "input_file": "factor_suitability_2025_Depth_35m_2025_highest.tif", "salinity_min": 32.86, "salinity_max": 32.86, "salinity_mean": 32.86, "salinity_median": 32.86, "depth_min": 7.048, "depth_max": 18.347, "depth_mean": 11.086, "depth_median": 10.994, "temperature_min": 29.149, "temperature_max": 29.149, "temperature_mean": 29.149, "temperature_median": 29.149, "sedimentation_min": 3.122, "sedimentation_max": 4.3, "sedimentation_mean": 3.249, "sedimentation_median": 3.122, "depth_group": "35m", "source_zone_tif": "25_35m_2025_highest_noCheck4factor_zone.tif", "source_csv": "25_35m_2025_highest_noCheck4factor_ringkasan.csv" }, "geometry": { "type": "Polygon", "coordinates": [ [ [ 138.20075076449811, -6.398323717551037 ], [ 138.200736981811048, -6.400853607116059 ], [ 138.201098257176852, -6.400855577091216 ], [ 138.201097272613055, -6.40103628353414 ], [ 138.203987480637238, -6.401052034659003 ], [ 138.203974691903767, -6.403401224115012 ], [ 138.20704555988064, -6.40341794809525 ], [ 138.207040645248071, -6.404321484816324 ], [ 138.207401925005399, -6.404323451418649 ], [ 138.207400942120699, -6.404504158814542 ], [ 138.208846062789263, -6.404512022911457 ], [ 138.208866686778947, -6.400717162602547 ], [ 138.202905619609908, -6.400684716440533 ], [ 138.202911522426604, -6.399600476063462 ], [ 138.201105148328907, -6.399590631951028 ], [ 138.201112038090741, -6.398325686741322 ], [ 138.20075076449811, -6.398323717551037 ] ] ] } },
{ "type": "Feature", "properties": { "zone_id": 16, "scenario": "noCheck4factor", "pixel_count": 211, "area_m2": 84400, "area_ha": 8.44, "input_file": "factor_suitability_2025_Depth_35m_2025_highest.tif", "salinity_min": 32.86, "salinity_max": 32.86, "salinity_mean": 32.86, "salinity_median": 32.86, "depth_min": 7.321, "depth_max": 25.32, "depth_mean": 14.183, "depth_median": 12.987, "temperature_min": 29.149, "temperature_max": 29.149, "temperature_mean": 29.149, "temperature_median": 29.149, "sedimentation_min": 3.317, "sedimentation_max": 3.317, "sedimentation_mean": 3.317, "sedimentation_median": 3.317, "depth_group": "35m", "source_zone_tif": "25_35m_2025_highest_noCheck4factor_zone.tif", "source_csv": "25_35m_2025_highest_noCheck4factor_ringkasan.csv" }, "geometry": { "type": "Polygon", "coordinates": [ [ [ 138.240157219589662, -6.427090396601955 ], [ 138.240156244742849, -6.427271108880658 ], [ 138.240336897786761, -6.427272084029357 ], [ 138.240300811137701, -6.433958438364983 ], [ 138.240481466564574, -6.433959414472668 ], [ 138.240476587370665, -6.434862975858292 ], [ 138.241199210631692, -6.434866880204679 ], [ 138.241241137891024, -6.427096246373773 ], [ 138.240157219589662, -6.427090396601955 ] ] ] } },
{ "type": "Feature", "properties": { "zone_id": 17, "scenario": "noCheck4factor", "pixel_count": 429, "area_m2": 171600, "area_ha": 17.16, "input_file": "factor_suitability_2025_Depth_35m_2025_highest.tif", "salinity_min": 32.874, "salinity_max": 32.874, "salinity_mean": 32.874, "salinity_median": 32.874, "depth_min": 6.522, "depth_max": 12.81, "depth_mean": 7.974, "depth_median": 7.65, "temperature_min": 28.936, "temperature_max": 28.936, "temperature_mean": 28.936, "temperature_median": 28.936, "sedimentation_min": 13.455, "sedimentation_max": 13.455, "sedimentation_mean": 13.455, "sedimentation_median": 13.455, "depth_group": "35m", "source_zone_tif": "25_35m_2025_highest_noCheck4factor_zone.tif", "source_csv": "25_35m_2025_highest_noCheck4factor_ringkasan.csv" }, "geometry": { "type": "Polygon", "coordinates": [ [ [ 138.382940054187685, -6.451698650966181 ], [ 138.382917774457326, -6.45603625199128 ], [ 138.386170099413505, -6.456052961683934 ], [ 138.386171954340085, -6.455691494019697 ], [ 138.386352639183968, -6.455692421676017 ], [ 138.386356348463238, -6.45496948622587 ], [ 138.387621141322597, -6.454975977296547 ], [ 138.387622068128678, -6.45479524324725 ], [ 138.387260698735616, -6.454793389027694 ], [ 138.38726533300769, -6.453889719021748 ], [ 138.386903964359846, -6.453887864808168 ], [ 138.38690767181177, -6.453164928987404 ], [ 138.386726987783248, -6.453164001889424 ], [ 138.386728841477975, -6.452802534022928 ], [ 138.385644738630333, -6.452796970406798 ], [ 138.385645665821357, -6.452616236628535 ], [ 138.384380880819634, -6.452609743017941 ], [ 138.384383663575505, -6.452067542224789 ], [ 138.38311888121558, -6.452061046032464 ], [ 138.383120737148005, -6.451699579196884 ], [ 138.382940054187685, -6.451698650966181 ] ] ] } },
{ "type": "Feature", "properties": { "zone_id": 18, "scenario": "noCheck4factor", "pixel_count": 508, "area_m2": 203200, "area_ha": 20.32, "input_file": "factor_suitability_2025_Depth_35m_2025_highest.tif", "salinity_min": 32.874, "salinity_max": 32.874, "salinity_mean": 32.874, "salinity_median": 32.874, "depth_min": 6.126, "depth_max": 14.095, "depth_mean": 8.711, "depth_median": 8.533, "temperature_min": 28.936, "temperature_max": 28.936, "temperature_mean": 28.936, "temperature_median": 28.936, "sedimentation_min": 7.981, "sedimentation_max": 7.981, "sedimentation_mean": 7.981, "sedimentation_median": 7.981, "depth_group": "35m", "source_zone_tif": "25_35m_2025_highest_noCheck4factor_zone.tif", "source_csv": "25_35m_2025_highest_noCheck4factor_ringkasan.csv" }, "geometry": { "type": "Polygon", "coordinates": [ [ [ 138.39590771517453, -6.459898406203025 ], [ 138.395897543065814, -6.461886493453665 ], [ 138.396078231513485, -6.461887418543456 ], [ 138.396064356265384, -6.464598446728396 ], [ 138.399678149966775, -6.464616942901103 ], [ 138.399677226019435, -6.464797678623482 ], [ 138.399857916045619, -6.464798602785712 ], [ 138.400036758380509, -6.465160998428608 ], [ 138.40166297119265, -6.465169312898915 ], [ 138.401668510571795, -6.464084896841798 ], [ 138.401307130530654, -6.464083049942451 ], [ 138.401309900248521, -6.463540842051017 ], [ 138.399683693096847, -6.463532528537174 ], [ 138.399688311646514, -6.462628849861725 ], [ 138.399507622414944, -6.462627925948054 ], [ 138.399508546109729, -6.462447190234776 ], [ 138.398243722675232, -6.462440721228812 ], [ 138.398256657903914, -6.459910423648312 ], [ 138.39590771517453, -6.459898406203025 ] ] ] } },
{ "type": "Feature", "properties": { "zone_id": 19, "scenario": "noCheck4factor", "pixel_count": 193, "area_m2": 77200, "area_ha": 7.72, "input_file": "factor_suitability_2025_Depth_35m_2025_highest.tif", "salinity_min": 32.866, "salinity_max": 32.866, "salinity_mean": 32.866, "salinity_median": 32.866, "depth_min": 6.453, "depth_max": 16.074, "depth_mean": 9.292, "depth_median": 8.867, "temperature_min": 29.073, "temperature_max": 29.073, "temperature_mean": 29.073, "temperature_median": 29.073, "sedimentation_min": 5.919, "sedimentation_max": 5.919, "sedimentation_mean": 5.919, "sedimentation_median": 5.919, "depth_group": "35m", "source_zone_tif": "25_35m_2025_highest_noCheck4factor_zone.tif", "source_csv": "25_35m_2025_highest_noCheck4factor_ringkasan.csv" }, "geometry": { "type": "Polygon", "coordinates": [ [ [ 138.373312788732591, -6.496471794143292 ], [ 138.37330622254305, -6.497736915839423 ], [ 138.37240273329914, -6.497732223556913 ], [ 138.372401794843654, -6.497912955090507 ], [ 138.372039460593157, -6.49809180915379 ], [ 138.372036644600684, -6.498634003583811 ], [ 138.371675248552805, -6.498632125699463 ], [ 138.371674309706549, -6.498812857120634 ], [ 138.370590121816775, -6.498807221764513 ], [ 138.370589182557723, -6.498987953026243 ], [ 138.369685693061371, -6.498983254993989 ], [ 138.369684753453782, -6.499163986122564 ], [ 138.369504055570218, -6.499163046296621 ], [ 138.369501236394115, -6.499705239594758 ], [ 138.373837997596894, -6.499727779543616 ], [ 138.373854881247439, -6.496474608187823 ], [ 138.373312788732591, -6.496471794143292 ] ] ] } },
{ "type": "Feature", "properties": { "zone_id": 20, "scenario": "noCheck4factor", "pixel_count": 256, "area_m2": 102400, "area_ha": 10.24, "input_file": "factor_suitability_2025_Depth_35m_2025_highest.tif", "salinity_min": 32.868, "salinity_max": 32.868, "salinity_mean": 32.868, "salinity_median": 32.868, "depth_min": 7.464, "depth_max": 17.522, "depth_mean": 11.789, "depth_median": 12.049, "temperature_min": 29.115, "temperature_max": 29.115, "temperature_mean": 29.115, "temperature_median": 29.115, "sedimentation_min": 2.743, "sedimentation_max": 3.366, "sedimentation_mean": 3.349, "sedimentation_median": 3.366, "depth_group": "35m", "source_zone_tif": "25_35m_2025_highest_noCheck4factor_zone.tif", "source_csv": "25_35m_2025_highest_noCheck4factor_ringkasan.csv" }, "geometry": { "type": "Polygon", "coordinates": [ [ [ 138.298410717268638, -6.513969236448092 ], [ 138.298409749973899, -6.514149956932687 ], [ 138.297867671948268, -6.514147054271071 ], [ 138.297863801721064, -6.514869935870324 ], [ 138.297683108842676, -6.514868968079139 ], [ 138.297666654385978, -6.517941214159832 ], [ 138.294956248046645, -6.517926682642655 ], [ 138.294955278922487, -6.518107402581167 ], [ 138.290437947137065, -6.518083150430839 ], [ 138.290436976371836, -6.5182638696899 ], [ 138.298387494628969, -6.518306527682663 ], [ 138.298382654591592, -6.519210129919225 ], [ 138.299105432903701, -6.519214002262196 ], [ 138.299132521058482, -6.514153826244933 ], [ 138.298590442703926, -6.514150924357524 ], [ 138.298591409934147, -6.513970203845866 ], [ 138.298410717268638, -6.513969236448092 ] ] ] } },
{ "type": "Feature", "properties": { "zone_id": 21, "scenario": "noCheck4factor", "pixel_count": 350, "area_m2": 140000, "area_ha": 14.0, "input_file": "factor_suitability_2025_Depth_35m_2025_highest.tif", "salinity_min": 32.868, "salinity_max": 32.868, "salinity_mean": 32.868, "salinity_median": 32.868, "depth_min": 6.687, "depth_max": 16.487, "depth_mean": 10.906, "depth_median": 11.419, "temperature_min": 29.115, "temperature_max": 29.115, "temperature_mean": 29.115, "temperature_median": 29.115, "sedimentation_min": 3.366, "sedimentation_max": 3.366, "sedimentation_mean": 3.366, "sedimentation_median": 3.366, "depth_group": "35m", "source_zone_tif": "25_35m_2025_highest_noCheck4factor_zone.tif", "source_csv": "25_35m_2025_highest_noCheck4factor_ringkasan.csv" }, "geometry": { "type": "Polygon", "coordinates": [ [ [ 138.321883728454338, -6.517347488737235 ], [ 138.32188276905643, -6.517528212699057 ], [ 138.32206346649599, -6.517529172219155 ], [ 138.322061547747751, -6.517890620192161 ], [ 138.322784338294127, -6.517894457841584 ], [ 138.322774745504802, -6.519701698693648 ], [ 138.32512382617432, -6.519714167405511 ], [ 138.325116156702592, -6.521159962772146 ], [ 138.32656175121997, -6.521167632115563 ], [ 138.326581869031656, -6.51737241458204 ], [ 138.321883728454338, -6.517347488737235 ] ] ] } },
{ "type": "Feature", "properties": { "zone_id": 22, "scenario": "noCheck4factor", "pixel_count": 12779, "area_m2": 5111600, "area_ha": 511.16, "input_file": "factor_suitability_2025_Depth_35m_2025_highest.tif", "salinity_min": 32.868, "salinity_max": 32.876, "salinity_mean": 32.868, "salinity_median": 32.868, "depth_min": 6.406, "depth_max": 20.985, "depth_mean": 11.688, "depth_median": 11.526, "temperature_min": 29.015, "temperature_max": 29.115, "temperature_mean": 29.112, "temperature_median": 29.115, "sedimentation_min": 3.887, "sedimentation_max": 5.805, "sedimentation_mean": 4.108, "sedimentation_median": 3.887, "depth_group": "35m", "source_zone_tif": "25_35m_2025_highest_noCheck4factor_zone.tif", "source_csv": "25_35m_2025_highest_noCheck4factor_ringkasan.csv" }, "geometry": { "type": "Polygon", "coordinates": [ [ [ 138.344453030477183, -6.520900743567723 ], [ 138.344452078635612, -6.521081470841915 ], [ 138.343367866908181, -6.521075757751253 ], [ 138.343323081731143, -6.52956993052039 ], [ 138.340612511097049, -6.529555618846723 ], [ 138.340611556603818, -6.529736345493122 ], [ 138.356513663167249, -6.529820101892317 ], [ 138.356465238691442, -6.539037278176083 ], [ 138.356103818264984, -6.539035377482845 ], [ 138.356102867938375, -6.539216106339374 ], [ 138.355922157700661, -6.539215155869099 ], [ 138.355903144237175, -6.542829732168918 ], [ 138.350662521446367, -6.542802124972438 ], [ 138.350661568611969, -6.542982853003393 ], [ 138.350300147053986, -6.54298094699646 ], [ 138.350274406860166, -6.547860601856509 ], [ 138.341961660225479, -6.547816659118247 ], [ 138.341960703525018, -6.547997385832864 ], [ 138.346478495159971, -6.548021285447762 ], [ 138.346469898236592, -6.549647831801375 ], [ 138.347373461503452, -6.549652608055576 ], [ 138.347361044091372, -6.552002065422045 ], [ 138.348264612249011, -6.552006841781349 ], [ 138.34826079188943, -6.552729752222856 ], [ 138.351152218668403, -6.552745027367804 ], [ 138.351154126825065, -6.552383571300234 ], [ 138.360551304603348, -6.55243309799758 ], [ 138.36053989455749, -6.554601850847568 ], [ 138.36180491024956, -6.554608506719481 ], [ 138.361797305045343, -6.5560543433185 ], [ 138.36848385756511, -6.556089479312612 ], [ 138.368462038340937, -6.560246281488374 ], [ 138.369365636797141, -6.560251025807435 ], [ 138.369364688139626, -6.56043175645139 ], [ 138.369725179284757, -6.560614384472006 ], [ 138.369730870209793, -6.559530000279085 ], [ 138.370093257630288, -6.559351166324428 ], [ 138.370112217306144, -6.555736550891958 ], [ 138.372642275291327, -6.555749813483819 ], [ 138.372645115594281, -6.555207620013295 ], [ 138.373187270972636, -6.555210460104199 ], [ 138.373190110451134, -6.554668266383874 ], [ 138.374997294830479, -6.554677728342964 ], [ 138.375001077831428, -6.553954802310076 ], [ 138.375362514507657, -6.553956693712249 ], [ 138.375376695016911, -6.55124572009561 ], [ 138.377906741102464, -6.55125894711894 ], [ 138.377910517925159, -6.550536019294801 ], [ 138.37809123544281, -6.550536963490319 ], [ 138.378098787291663, -6.54909110756309 ], [ 138.378460221368613, -6.549092995339157 ], [ 138.378461165100248, -6.54891226328927 ], [ 138.377738297312192, -6.548908487582682 ], [ 138.377780749363779, -6.540775548583794 ], [ 138.377600035400775, -6.540774605677238 ], [ 138.377567019527419, -6.547100224229663 ], [ 138.367085523684921, -6.547045371336087 ], [ 138.367093103133868, -6.545599528037131 ], [ 138.361852403946898, -6.545572025894631 ], [ 138.36191120316289, -6.534366784694349 ], [ 138.368236047173269, -6.534399912840617 ], [ 138.368249278462855, -6.531869683388719 ], [ 138.368610697297669, -6.531871573292288 ], [ 138.36861447618702, -6.531148650329337 ], [ 138.368795185385693, -6.53114959507861 ], [ 138.368796129976573, -6.530968864307935 ], [ 138.366808330971793, -6.530958468797433 ], [ 138.366811166718918, -6.530416277347073 ], [ 138.364100539834908, -6.530402090222311 ], [ 138.364101486000749, -6.530221360131915 ], [ 138.36319794536675, -6.530216627987718 ], [ 138.363201731056108, -6.529493708140079 ], [ 138.36284031550727, -6.529491815040912 ], [ 138.362843154881347, -6.52894962529868 ], [ 138.362481739827558, -6.528947732099311 ], [ 138.362494042679657, -6.526598243754566 ], [ 138.361951922821362, -6.526595404501066 ], [ 138.361953815554187, -6.526233944892833 ], [ 138.361773109117593, -6.526232998398551 ], [ 138.361755122603398, -6.529666863943659 ], [ 138.351454830006247, -6.529612778221861 ], [ 138.351476686683924, -6.525456028267601 ], [ 138.344609929952867, -6.525419877587546 ], [ 138.344633732461517, -6.520901695496811 ], [ 138.344453030477183, -6.520900743567723 ] ] ] } },
{ "type": "Feature", "properties": { "zone_id": 23, "scenario": "noCheck4factor", "pixel_count": 90, "area_m2": 36000, "area_ha": 3.6, "input_file": "factor_suitability_2025_Depth_35m_2025_highest.tif", "salinity_min": 32.876, "salinity_max": 32.876, "salinity_mean": 32.876, "salinity_median": 32.876, "depth_min": 7.239, "depth_max": 15.448, "depth_mean": 11.509, "depth_median": 11.415, "temperature_min": 29.015, "temperature_max": 29.015, "temperature_mean": 29.015, "temperature_median": 29.015, "sedimentation_min": 5.805, "sedimentation_max": 5.805, "sedimentation_mean": 5.805, "sedimentation_median": 5.805, "depth_group": "35m", "source_zone_tif": "25_35m_2025_highest_noCheck4factor_zone.tif", "source_csv": "25_35m_2025_highest_noCheck4factor_ringkasan.csv" }, "geometry": { "type": "Polygon", "coordinates": [ [ [ 138.386365365095315, -6.523288660827816 ], [ 138.386355992151522, -6.525095994569485 ], [ 138.387982379580961, -6.525104429904242 ], [ 138.387991746708479, -6.523297093806625 ], [ 138.386365365095315, -6.523288660827816 ] ] ] } },
{ "type": "Feature", "properties": { "zone_id": 24, "scenario": "noCheck4factor", "pixel_count": 76, "area_m2": 30400, "area_ha": 3.04, "input_file": "factor_suitability_2025_Depth_35m_2025_highest.tif", "salinity_min": 32.876, "salinity_max": 32.876, "salinity_mean": 32.876, "salinity_median": 32.876, "depth_min": 7.333, "depth_max": 16.043, "depth_mean": 11.159, "depth_median": 11.058, "temperature_min": 29.015, "temperature_max": 29.015, "temperature_mean": 29.015, "temperature_median": 29.015, "sedimentation_min": 5.346, "sedimentation_max": 5.346, "sedimentation_mean": 5.346, "sedimentation_median": 5.346, "depth_group": "35m", "source_zone_tif": "25_35m_2025_highest_noCheck4factor_zone.tif", "source_csv": "25_35m_2025_highest_noCheck4factor_ringkasan.csv" }, "geometry": { "type": "Polygon", "coordinates": [ [ [ 138.387481056436485, -6.552031838971602 ], [ 138.38744622404613, -6.558718971469649 ], [ 138.387084780430342, -6.558717087407184 ], [ 138.387083838380562, -6.55889782063835 ], [ 138.388348891954649, -6.558904413903019 ], [ 138.388357365354864, -6.557277813121992 ], [ 138.387634479778001, -6.557274046874219 ], [ 138.387661775881298, -6.552032779936892 ], [ 138.387481056436485, -6.552031838971602 ] ] ] } },
{ "type": "Feature", "properties": { "zone_id": 25, "scenario": "noCheck4factor", "pixel_count": 8926, "area_m2": 3570400, "area_ha": 357.04, "input_file": "factor_suitability_2025_Depth_35m_2025_highest.tif", "salinity_min": 32.876, "salinity_max": 32.894, "salinity_mean": 32.881, "salinity_median": 32.876, "depth_min": 4.774, "depth_max": 14.963, "depth_mean": 8.264, "depth_median": 7.708, "temperature_min": 28.846, "temperature_max": 29.015, "temperature_mean": 28.967, "temperature_median": 29.015, "sedimentation_min": 8.86, "sedimentation_max": 12.769, "sedimentation_mean": 9.96, "sedimentation_median": 8.86, "depth_group": "35m", "source_zone_tif": "25_35m_2025_highest_noCheck4factor_zone.tif", "source_csv": "25_35m_2025_highest_noCheck4factor_ringkasan.csv" }, "geometry": { "type": "Polygon", "coordinates": [ [ [ 138.474047763067631, -6.552655874722105 ], [ 138.474021366489609, -6.55789749845805 ], [ 138.469322294465968, -6.557873799386797 ], [ 138.469309519912827, -6.560404228781027 ], [ 138.476177434836046, -6.560438864539626 ], [ 138.476150117979103, -6.565861241169564 ], [ 138.47777675239152, -6.565869437450761 ], [ 138.477774931618995, -6.566230929635521 ], [ 138.478317143941211, -6.566233660709607 ], [ 138.478318054145092, -6.566052914542126 ], [ 138.479041004006177, -6.566056554962138 ], [ 138.479048282633499, -6.564610584762476 ], [ 138.490073286937474, -6.564665959858413 ], [ 138.490069663702855, -6.565388951119908 ], [ 138.490611880259735, -6.565391668541267 ], [ 138.490609163151788, -6.565933912198757 ], [ 138.490970641374162, -6.565935723638517 ], [ 138.490972452544668, -6.565574227767708 ], [ 138.491153191563939, -6.565575133339695 ], [ 138.49115500250241, -6.565213637412904 ], [ 138.491335741417004, -6.565214542869541 ], [ 138.491336646782997, -6.565033794878869 ], [ 138.503084726552942, -6.565092508359561 ], [ 138.503080220614919, -6.565996256449524 ], [ 138.503260961466907, -6.565997157711728 ], [ 138.503260060268303, -6.566177907350468 ], [ 138.503621542178479, -6.56617970972968 ], [ 138.503622443246911, -6.565998960040905 ], [ 138.503983925128267, -6.566000762109775 ], [ 138.503985726928875, -6.565639262627898 ], [ 138.505793136554615, -6.565648268567542 ], [ 138.50579403676619, -6.565467518574439 ], [ 138.505974777803004, -6.565468418785505 ], [ 138.505981978063573, -6.564022418589495 ], [ 138.511223464044747, -6.564048490611682 ], [ 138.511232443228693, -6.562240982998569 ], [ 138.520811731113412, -6.562288477299841 ], [ 138.520815308292413, -6.561565468937803 ], [ 138.516838997237954, -6.561545778689603 ], [ 138.516844370834605, -6.560461269385848 ], [ 138.516663630102954, -6.560460373775961 ], [ 138.516664525679204, -6.560279622245245 ], [ 138.515941563264846, -6.560276039255005 ], [ 138.515945146357836, -6.559553033516136 ], [ 138.515041445207629, -6.559548553813263 ], [ 138.515040549147159, -6.559729305125631 ], [ 138.50582283016638, -6.559683518043644 ], [ 138.50582912526616, -6.558418267733313 ], [ 138.500406982031677, -6.558391260416919 ], [ 138.500421397362686, -6.555499271455524 ], [ 138.497891086221813, -6.555486653634358 ], [ 138.497893791101546, -6.554944406716062 ], [ 138.497351582803589, -6.554941701466151 ], [ 138.497178060728572, -6.553494808543978 ], [ 138.49645511886709, -6.553491201177374 ], [ 138.496456922625896, -6.553129703603248 ], [ 138.49627618735397, -6.553128801649394 ], [ 138.496275285422342, -6.55330955041208 ], [ 138.495733079564161, -6.553306844085566 ], [ 138.495729470804037, -6.554029838821 ], [ 138.495006528976631, -6.554026229074806 ], [ 138.495003821360172, -6.554568474810277 ], [ 138.494823085772055, -6.554567572136032 ], [ 138.494814960964732, -6.556194309039712 ], [ 138.492826864742852, -6.556184372849421 ], [ 138.492825961144632, -6.556365121110917 ], [ 138.488307570473836, -6.556342508992079 ], [ 138.488298516846356, -6.558149985242371 ], [ 138.487937044981152, -6.558148174015059 ], [ 138.487752686141931, -6.558870258462109 ], [ 138.477992971732021, -6.558821248094706 ], [ 138.478002063421911, -6.557013786276606 ], [ 138.474206652723211, -6.556994680812029 ], [ 138.47422849506961, -6.552656784613497 ], [ 138.474047763067631, -6.552655874722105 ] ] ] } }
]
}
